{"type":"FeatureCollection","properties":{"cityId":"philadelphia","name":"Philadelphia","sourceUrl":"https://services.arcgis.com/fLeGjb7u4uXqeF9q/arcgis/rest/services/City_Limits/FeatureServer/0/query?where=1%3D1&outFields=*&returnGeometry=true&outSR=4326&f=geojson","simplified":true,"toleranceDegrees":0.00035,"bbox":[-75.280133,39.867472,-74.955881,40.137935]},"features":[{"type":"Feature","properties":{"cityId":"philadelphia","name":"Philadelphia","part":"1"},"geometry":{"type":"Polygon","coordinates":[[[-75.014967,40.137935],[-74.997887,40.127826],[-74.993849,40.131863],[-74.992753,40.130615],[-74.994474,40.127119],[-74.994352,40.126227],[-74.989158,40.126171],[-74.988392,40.124279],[-74.986671,40.123169],[-74.9847,40.123943],[-74.983139,40.123457],[-74.982195,40.121779],[-74.983069,40.120899],[-74.982373,40.11995],[-74.980727,40.120146],[-74.979134,40.119351],[-74.975932,40.120466],[-74.972674,40.119796],[-74.970269,40.117093],[-74.969088,40.116849],[-74.964837,40.118635],[-74.963176,40.116683],[-74.963091,40.114649],[-74.964138,40.113289],[-74.963711,40.109966],[-74.965609,40.108099],[-74.964727,40.107181],[-74.963337,40.10688],[-74.963798,40.105547],[-74.962556,40.105085],[-74.96102,40.103329],[-74.962071,40.098775],[-74.96162,40.09767],[-74.956287,40.095935],[-74.955881,40.094733],[-74.95798,40.090471],[-74.958252,40.089145],[-74.95761,40.087211],[-74.959001,40.082511],[-74.960012,40.082057],[-74.960041,40.081328],[-74.962133,40.079384],[-74.963506,40.077065],[-74.966184,40.077272],[-74.966942,40.076389],[-74.969482,40.076462],[-74.971349,40.075759],[-74.971594,40.074561],[-74.971032,40.073845],[-74.972221,40.073157],[-74.972575,40.072133],[-74.974802,40.070829],[-74.977271,40.068157],[-74.980923,40.065992],[-74.981003,40.061696],[-74.980486,40.060088],[-74.985188,40.057114],[-74.984254,40.055287],[-74.982793,40.053928],[-74.979838,40.05361],[-74.974786,40.049324],[-74.975763,40.048158],[-74.981169,40.045536],[-74.984432,40.042163],[-74.987677,40.039991],[-74.998761,40.030289],[-75.014866,40.019903],[-75.020416,40.017713],[-75.037881,40.014563],[-75.048833,40.00919],[-75.052357,40.006393],[-75.055164,40.002403],[-75.061114,39.990563],[-75.063948,39.986366],[-75.072239,39.980133],[-75.079262,39.977179],[-75.096076,39.973942],[-75.105078,39.971604],[-75.11945,39.965683],[-75.127777,39.96153],[-75.13048,39.95962],[-75.13488,39.952084],[-75.136318,39.945849],[-75.135698,39.941015],[-75.135725,39.930659],[-75.130188,39.916677],[-75.129385,39.912332],[-75.129286,39.907398],[-75.131234,39.900793],[-75.135523,39.891855],[-75.141119,39.885938],[-75.146166,39.884112],[-75.159973,39.8832],[-75.174726,39.881055],[-75.187037,39.880643],[-75.200651,39.874408],[-75.211977,39.867472],[-75.21604,39.871124],[-75.215729,39.876027],[-75.220867,39.87558],[-75.233958,39.877187],[-75.236372,39.876197],[-75.236935,39.875126],[-75.240474,39.872391],[-75.246737,39.875078],[-75.248433,39.876495],[-75.252259,39.875947],[-75.262532,39.876571],[-75.265114,39.881665],[-75.262265,39.88258],[-75.261967,39.883248],[-75.264446,39.884323],[-75.26464,39.884742],[-75.262731,39.885562],[-75.262685,39.886034],[-75.2648,39.886453],[-75.26498,39.887762],[-75.263998,39.888477],[-75.262475,39.888427],[-75.261735,39.89179],[-75.25896,39.892539],[-75.256912,39.894552],[-75.256794,39.895201],[-75.257392,39.895715],[-75.255228,39.898501],[-75.255622,39.899488],[-75.251291,39.904413],[-75.253492,39.905597],[-75.250447,39.907548],[-75.249935,39.909162],[-75.251238,39.910146],[-75.247071,39.913788],[-75.247718,39.914847],[-75.246755,39.916242],[-75.247625,39.919677],[-75.247508,39.921782],[-75.244338,39.92626],[-75.24397,39.92961],[-75.24443,39.930297],[-75.242127,39.933378],[-75.240762,39.933626],[-75.238316,39.932613],[-75.237219,39.932702],[-75.236394,39.935181],[-75.234981,39.936231],[-75.234789,39.93705],[-75.235165,39.938281],[-75.239565,39.938156],[-75.240595,39.938644],[-75.239433,39.9409],[-75.240076,39.942005],[-75.246747,39.942865],[-75.251559,39.949234],[-75.251155,39.950425],[-75.251616,39.952055],[-75.24899,39.956437],[-75.250884,39.958818],[-75.247977,39.961007],[-75.247781,39.963885],[-75.250224,39.965086],[-75.253939,39.965399],[-75.25669,39.963729],[-75.257861,39.963604],[-75.258741,39.965457],[-75.260481,39.966319],[-75.265256,39.965216],[-75.269743,39.967324],[-75.270573,39.968647],[-75.275269,39.969373],[-75.276474,39.971145],[-75.277579,39.97116],[-75.27854,39.972195],[-75.279244,39.974041],[-75.280133,39.974745],[-75.276382,39.977014],[-75.263716,39.982643],[-75.255699,39.987519],[-75.207317,40.010217],[-75.206165,40.011817],[-75.212393,40.015548],[-75.216008,40.019343],[-75.219082,40.021624],[-75.222385,40.022712],[-75.232227,40.028149],[-75.240099,40.03366],[-75.242182,40.035772],[-75.245564,40.037587],[-75.248876,40.041729],[-75.258603,40.048493],[-75.264468,40.054004],[-75.243069,40.073714],[-75.223588,40.092954],[-75.188479,40.072879],[-75.17651,40.084701],[-75.109434,40.045883],[-75.106313,40.0493],[-75.095121,40.055946],[-75.087466,40.063593],[-75.09674,40.068989],[-75.086949,40.078669],[-75.081191,40.084126],[-75.077804,40.085779],[-75.058426,40.105832],[-75.020574,40.132284],[-75.017953,40.134857],[-75.014967,40.137935]]]}}]}
