{"type":"FeatureCollection","properties":{"cityId":"nyc","name":"New York City","sourceUrl":"https://www.nyc.gov/assets/planning/download/zip/data-maps/open-data/nybb_21a.zip","simplified":true,"toleranceDegrees":0.00045,"bbox":[-74.255453,40.496134,-73.700022,40.915532]},"features":[{"type":"Feature","properties":{"cityId":"nyc","name":"New York City","part":"Manhattan"},"geometry":{"type":"MultiPolygon","coordinates":[[[[-74.010928,40.684491],[-74.011932,40.683887],[-74.008354,40.6864],[-74.009533,40.685341],[-74.010928,40.684491]]],[[[-74.005004,40.687606],[-74.00563,40.686784],[-74.007833,40.687385],[-74.00742,40.688206],[-74.005004,40.687606]]],[[[-74.00382,40.688929],[-74.004593,40.688215],[-74.006784,40.688826],[-74.006364,40.689669],[-74.00382,40.688929]]],[[[-74.002976,40.690426],[-74.003409,40.689613],[-74.005759,40.690236],[-74.005342,40.691091],[-74.002976,40.690426]]],[[[-74.043877,40.690187],[-74.043506,40.689687],[-74.042735,40.69005],[-74.044385,40.688516],[-74.046803,40.689953],[-74.047476,40.689611],[-74.046892,40.690059],[-74.047232,40.69088],[-74.044606,40.690573],[-74.043877,40.690187]]],[[[-74.001326,40.691463],[-74.000699,40.690611],[-74.004794,40.691761],[-74.004409,40.692528],[-74.001969,40.691843],[-74.001326,40.691463]]],[[[-74.016747,40.693343],[-74.013478,40.692138],[-74.011751,40.692318],[-74.013285,40.692047],[-74.012034,40.691503],[-74.012597,40.691334],[-74.011986,40.690697],[-74.013169,40.688154],[-74.016981,40.686907],[-74.015152,40.686524],[-74.017273,40.68569],[-74.017121,40.686843],[-74.020156,40.685449],[-74.020207,40.684833],[-74.019459,40.685155],[-74.020952,40.684384],[-74.020289,40.684784],[-74.020613,40.68524],[-74.022593,40.684359],[-74.022132,40.683767],[-74.023056,40.682917],[-74.022368,40.68378],[-74.022759,40.684284],[-74.024432,40.683954],[-74.026232,40.6847],[-74.026426,40.686175],[-74.019856,40.692906],[-74.017359,40.693305],[-74.016747,40.693343]]],[[[-74.001542,40.692786],[-74.004008,40.693208],[-74.003453,40.694051],[-74.00127,40.693296],[-74.001542,40.692786]]],[[[-74.000783,40.694286],[-74.003014,40.694777],[-74.002635,40.695362],[-74.000269,40.694965],[-74.000701,40.694387],[-74.000783,40.694286]]],[[[-74.000431,40.697052],[-73.999593,40.696782],[-74.000489,40.696926],[-74.000431,40.697052]]],[[[-73.998377,40.698063],[-73.998871,40.697157],[-74.001049,40.697908],[-74.000488,40.698757],[-73.998377,40.698063]]],[[[-73.997999,40.698797],[-74.000018,40.699466],[-73.999474,40.700322],[-73.997499,40.699638],[-73.997999,40.698797]]],[[[-74.03995,40.70089],[-74.037711,40.699344],[-74.038229,40.698368],[-74.039,40.69837],[-74.041242,40.699536],[-74.041748,40.699148],[-74.039912,40.697702],[-74.04166,40.696453],[-74.043674,40.69802],[-74.040288,40.700643],[-74.03995,40.70089]]],[[[-73.995384,40.702643],[-73.996698,40.700877],[-73.998139,40.701518],[-73.996192,40.703377],[-73.99526,40.70281],[-73.995384,40.702643]]],[[[-73.995021,40.703147],[-73.995293,40.703554],[-73.9948,40.703291],[-73.995021,40.703147]]],[[[-73.994769,40.703952],[-73.994882,40.703788],[-73.99491,40.703797],[-73.994929,40.703771],[-73.995029,40.703808],[-73.994882,40.704008],[-73.994836,40.703986],[-73.994769,40.703952]]],[[[-73.982373,40.705543],[-73.981024,40.705898],[-73.982329,40.705552],[-73.982373,40.705543]]],[[[-73.967151,40.718316],[-73.966562,40.718015],[-73.967091,40.718405],[-73.967151,40.718316]]],[[[-73.966365,40.719056],[-73.965858,40.718773],[-73.966319,40.719108],[-73.966365,40.719056]]],[[[-73.964351,40.720403],[-73.964398,40.720296],[-73.964683,40.72047],[-73.964593,40.720544],[-73.964351,40.720403]]],[[[-73.963998,40.720938],[-73.964088,40.720755],[-73.965049,40.721357],[-73.964894,40.721475],[-73.963998,40.720938]]],[[[-73.962366,40.724208],[-73.962007,40.723991],[-73.962073,40.72388],[-73.962468,40.724131],[-73.962472,40.724174],[-73.962443,40.724199],[-73.96239,40.724193],[-73.962366,40.724208]]],[[[-73.961284,40.730158],[-73.962419,40.729801],[-73.961353,40.730151],[-73.961284,40.730158]]],[[[-73.96197,40.731577],[-73.963559,40.731335],[-73.962915,40.731533],[-73.96197,40.731577]]],[[[-73.962304,40.733113],[-73.964038,40.732769],[-73.962356,40.733107],[-73.962304,40.733113]]],[[[-73.964212,40.746604],[-73.964273,40.746541],[-73.964337,40.746545],[-73.964377,40.746494],[-73.964445,40.74641],[-73.964583,40.746454],[-73.964587,40.746515],[-73.964545,40.746564],[-73.964475,40.74664],[-73.964374,40.746704],[-73.964337,40.746734],[-73.964272,40.746751],[-73.964216,40.746836],[-73.96416,40.746865],[-73.964125,40.746845],[-73.964134,40.746812],[-73.964212,40.746666],[-73.964212,40.746604]]],[[[-73.957636,40.748406],[-73.957493,40.748336],[-73.957519,40.748303],[-73.957667,40.748373],[-73.957726,40.748293],[-73.957839,40.748337],[-73.957688,40.748534],[-73.957576,40.748488],[-73.957636,40.748406]]],[[[-73.935568,40.771918],[-73.935656,40.771756],[-73.935521,40.771716],[-73.935566,40.771628],[-73.935852,40.771715],[-73.93581,40.771799],[-73.935698,40.771766],[-73.935608,40.771931],[-73.935568,40.771918]]],[[[-73.9418,40.769046],[-73.952541,40.757095],[-73.961328,40.7496],[-73.959016,40.753594],[-73.944723,40.769733],[-73.940274,40.772947],[-73.94028,40.77067],[-73.94126,40.769308],[-73.9418,40.769046]]],[[[-73.938046,40.780829],[-73.937599,40.780467],[-73.939237,40.779733],[-73.938744,40.781043],[-73.938067,40.780944],[-73.938046,40.780829]]],[[[-73.921337,40.800852],[-73.920579,40.799668],[-73.915455,40.797063],[-73.914438,40.795665],[-73.913784,40.793836],[-73.915141,40.792012],[-73.918433,40.789803],[-73.921892,40.785703],[-73.922852,40.783555],[-73.92448,40.78232],[-73.928101,40.78092],[-73.931053,40.782396],[-73.935023,40.783006],[-73.93607,40.784217],[-73.935793,40.785254],[-73.932401,40.78972],[-73.929784,40.791341],[-73.926086,40.791003],[-73.926428,40.791956],[-73.926488,40.791022],[-73.927893,40.790978],[-73.927233,40.791791],[-73.928338,40.792856],[-73.926926,40.795579],[-73.927118,40.797203],[-73.927671,40.797216],[-73.927248,40.800392],[-73.926665,40.800182],[-73.926845,40.800739],[-73.925493,40.801956],[-73.921911,40.801502],[-73.921337,40.800852]]],[[[-73.926405,40.877621],[-73.926381,40.877147],[-73.922715,40.876931],[-73.922475,40.874077],[-73.921255,40.873082],[-73.919981,40.87338],[-73.921104,40.875252],[-73.920665,40.875394],[-73.918862,40.874642],[-73.91927,40.873809],[-73.918587,40.873277],[-73.917577,40.874548],[-73.91789,40.873962],[-73.915402,40.874503],[-73.912611,40.873757],[-73.911224,40.873027],[-73.910448,40.871366],[-73.912828,40.866157],[-73.914924,40.86458],[-73.914474,40.864311],[-73.915632,40.864309],[-73.915411,40.863094],[-73.919481,40.858813],[-73.921516,40.86013],[-73.921856,40.85927],[-73.920351,40.858195],[-73.922157,40.856766],[-73.922344,40.855682],[-73.921817,40.856454],[-73.922029,40.85604],[-73.929869,40.844983],[-73.934936,40.83508],[-73.9338,40.818349],[-73.934338,40.809562],[-73.929354,40.801671],[-73.929279,40.795853],[-73.936024,40.790829],[-73.937061,40.789413],[-73.936141,40.788948],[-73.937149,40.789168],[-73.939826,40.785256],[-73.94324,40.783327],[-73.94388,40.781531],[-73.943214,40.779317],[-73.942535,40.77909],[-73.942002,40.776185],[-73.94293,40.774676],[-73.959172,40.757864],[-73.971173,40.744107],[-73.972657,40.739222],[-73.97249,40.735803],[-73.974466,40.736278],[-73.972806,40.735523],[-73.973418,40.734971],[-73.97444,40.735316],[-73.973382,40.731235],[-73.97144,40.729095],[-73.971627,40.726628],[-73.973513,40.718774],[-73.97655,40.711734],[-73.977997,40.710561],[-73.98306,40.709647],[-73.988165,40.709156],[-73.989358,40.7099],[-73.998083,40.708509],[-74.001224,40.706745],[-74.000583,40.705433],[-74.001437,40.704872],[-74.002569,40.705523],[-74.001971,40.704737],[-74.00242,40.70468],[-74.003323,40.705628],[-74.003833,40.705303],[-74.002629,40.704223],[-74.004057,40.705147],[-74.006596,40.703685],[-74.005558,40.702781],[-74.006995,40.703441],[-74.00911,40.701983],[-74.008699,40.701139],[-74.007755,40.701548],[-74.008536,40.700919],[-74.009585,40.701837],[-74.011056,40.701454],[-74.010919,40.700486],[-74.012905,40.700496],[-74.013025,40.699882],[-74.013951,40.700991],[-74.01422,40.700111],[-74.014643,40.700817],[-74.014999,40.700406],[-74.018447,40.704162],[-74.017516,40.70458],[-74.018863,40.704719],[-74.019341,40.70607],[-74.018217,40.707742],[-74.018747,40.70848],[-74.01777,40.712834],[-74.016624,40.712157],[-74.016392,40.7131],[-74.017544,40.713611],[-74.017655,40.713161],[-74.01671,40.718624],[-74.013213,40.718315],[-74.013068,40.718922],[-74.013994,40.720085],[-74.016378,40.720376],[-74.013,40.720333],[-74.012897,40.720868],[-74.015695,40.721206],[-74.012539,40.721503],[-74.011654,40.725867],[-74.015171,40.726579],[-74.011542,40.726447],[-74.011383,40.728229],[-74.01439,40.728463],[-74.014077,40.73064],[-74.011162,40.73045],[-74.010941,40.733007],[-74.014002,40.733068],[-74.010904,40.733297],[-74.010833,40.734007],[-74.012018,40.734063],[-74.010813,40.734283],[-74.010476,40.738063],[-74.011087,40.738092],[-74.010393,40.739174],[-74.011388,40.739216],[-74.01146,40.740584],[-74.012657,40.740696],[-74.009631,40.740645],[-74.009411,40.741154],[-74.012162,40.741491],[-74.009519,40.74149],[-74.009091,40.742886],[-74.012119,40.743516],[-74.009512,40.743676],[-74.008803,40.744439],[-74.011739,40.745519],[-74.011679,40.745979],[-74.009464,40.74575],[-74.009385,40.746209],[-74.011534,40.746567],[-74.009243,40.746762],[-74.009137,40.747359],[-74.011356,40.747592],[-74.009058,40.747785],[-74.008946,40.748411],[-74.011167,40.748645],[-74.009948,40.748931],[-74.009104,40.750371],[-74.010677,40.751022],[-74.009001,40.750648],[-74.008532,40.751883],[-74.009341,40.752355],[-74.008479,40.752018],[-74.009865,40.752763],[-74.008353,40.75235],[-74.007596,40.75453],[-74.004804,40.757809],[-74.006964,40.75916],[-74.006529,40.759874],[-74.004505,40.759084],[-74.002335,40.761543],[-74.004545,40.762492],[-74.002201,40.761728],[-74.001788,40.762294],[-74.003757,40.763582],[-74.001386,40.76285],[-74.000973,40.76342],[-74.003149,40.764332],[-73.999517,40.763706],[-73.999151,40.764205],[-74.002274,40.765525],[-73.9992,40.764701],[-73.998358,40.765418],[-74.001542,40.766944],[-73.998157,40.765894],[-73.997721,40.766349],[-73.997378,40.766823],[-74.000628,40.768203],[-73.997156,40.767128],[-73.996457,40.768098],[-73.999728,40.769473],[-73.997071,40.768732],[-73.996571,40.769424],[-73.999027,40.770463],[-73.996313,40.769798],[-73.995817,40.771256],[-73.994935,40.771468],[-73.997073,40.772542],[-73.994774,40.771929],[-73.994445,40.772377],[-73.996229,40.773128],[-73.993831,40.772931],[-73.99624,40.773789],[-73.993937,40.773179],[-73.990396,40.777585],[-73.988868,40.779692],[-73.991551,40.779574],[-73.988886,40.779878],[-73.985616,40.785141],[-73.986172,40.786068],[-73.987072,40.785189],[-73.986128,40.786238],[-73.985429,40.785413],[-73.985081,40.785921],[-73.985684,40.786222],[-73.984655,40.786534],[-73.985744,40.78657],[-73.984619,40.786586],[-73.964325,40.815512],[-73.95939,40.820855],[-73.958745,40.821805],[-73.95991,40.822571],[-73.959603,40.822994],[-73.958651,40.821918],[-73.9582,40.822283],[-73.957939,40.822774],[-73.959556,40.823693],[-73.956318,40.827944],[-73.955039,40.827413],[-73.951403,40.832322],[-73.946119,40.844004],[-73.946869,40.850589],[-73.942055,40.853654],[-73.932548,40.867413],[-73.931914,40.871129],[-73.929977,40.874339],[-73.926416,40.87761],[-73.926405,40.877621]]],[[[-73.923597,40.878898],[-73.923617,40.878852],[-73.923624,40.878854],[-73.923637,40.878815],[-73.923679,40.878826],[-73.923666,40.878863],[-73.923678,40.878865],[-73.923662,40.878911],[-73.923652,40.878911],[-73.92363,40.878964],[-73.923592,40.878952],[-73.923611,40.8789],[-73.923597,40.878898]]],[[[-73.906651,40.875752],[-73.907743,40.872845],[-73.90872,40.872228],[-73.911263,40.874323],[-73.915785,40.875716],[-73.911489,40.879018],[-73.909498,40.878776],[-73.90682,40.876585],[-73.906651,40.875752]]]]}},{"type":"Feature","properties":{"cityId":"nyc","name":"New York City","part":"Bronx"},"geometry":{"type":"MultiPolygon","coordinates":[[[[-73.896809,40.795808],[-73.897968,40.795644],[-73.899194,40.796502],[-73.897882,40.797116],[-73.896785,40.796329],[-73.896809,40.795808]]],[[[-73.888851,40.798706],[-73.88678,40.798106],[-73.88398,40.795845],[-73.878042,40.794384],[-73.872164,40.790995],[-73.871183,40.789945],[-73.871073,40.787574],[-73.873355,40.785788],[-73.878307,40.785356],[-73.889052,40.787372],[-73.89057,40.790107],[-73.89177,40.790221],[-73.892823,40.792816],[-73.891793,40.796775],[-73.890169,40.797964],[-73.888311,40.798184],[-73.888837,40.798746],[-73.888851,40.798706]]],[[[-73.89833,40.802412],[-73.896467,40.80079],[-73.89864,40.799101],[-73.90021,40.799264],[-73.899387,40.801935],[-73.89833,40.802412]]],[[[-73.788334,40.834666],[-73.789312,40.834464],[-73.78951,40.835363],[-73.788457,40.835309],[-73.788334,40.834666]]],[[[-73.802223,40.841634],[-73.802638,40.841081],[-73.806946,40.841462],[-73.806808,40.842489],[-73.803676,40.842258],[-73.802223,40.841634]]],[[[-73.78069,40.854928],[-73.781152,40.855465],[-73.780647,40.855033],[-73.78069,40.854928]]],[[[-73.782852,40.855485],[-73.782597,40.854822],[-73.78352,40.854907],[-73.78306,40.855708],[-73.782852,40.855485]]],[[[-73.789222,40.858742],[-73.788265,40.857506],[-73.788856,40.85647],[-73.788347,40.854153],[-73.787363,40.854419],[-73.788345,40.854131],[-73.787315,40.854211],[-73.788014,40.853568],[-73.785882,40.851788],[-73.78341,40.851578],[-73.784352,40.851098],[-73.784253,40.85022],[-73.783578,40.849266],[-73.781575,40.84943],[-73.782514,40.848289],[-73.781382,40.848377],[-73.782638,40.848072],[-73.781584,40.848036],[-73.782215,40.846861],[-73.780637,40.846923],[-73.781152,40.846246],[-73.781688,40.846638],[-73.781099,40.846771],[-73.782157,40.846607],[-73.783095,40.845518],[-73.781907,40.845355],[-73.783365,40.844444],[-73.783095,40.843865],[-73.780574,40.844469],[-73.779927,40.843882],[-73.780533,40.844452],[-73.780369,40.843976],[-73.781576,40.844207],[-73.781801,40.843583],[-73.782038,40.844103],[-73.782216,40.843446],[-73.78247,40.843999],[-73.782874,40.843123],[-73.783133,40.843697],[-73.783192,40.842867],[-73.783245,40.843471],[-73.782733,40.842521],[-73.782445,40.843041],[-73.781801,40.842695],[-73.78197,40.84322],[-73.781247,40.842796],[-73.781428,40.84337],[-73.780674,40.842907],[-73.78086,40.8435],[-73.780644,40.84291],[-73.780293,40.843778],[-73.780227,40.842883],[-73.782865,40.842477],[-73.780597,40.842786],[-73.782369,40.842428],[-73.781454,40.842171],[-73.782324,40.841898],[-73.780299,40.842511],[-73.780196,40.842046],[-73.781851,40.841653],[-73.780842,40.841276],[-73.781649,40.841097],[-73.781343,40.839238],[-73.782906,40.837319],[-73.782823,40.836337],[-73.784915,40.836841],[-73.78485,40.83747],[-73.78564,40.837064],[-73.785166,40.837471],[-73.785681,40.8391],[-73.787304,40.839674],[-73.788385,40.842381],[-73.789617,40.843112],[-73.78947,40.844289],[-73.791491,40.84625],[-73.791441,40.847305],[-73.79192,40.847228],[-73.789757,40.849531],[-73.79065,40.849844],[-73.790055,40.850397],[-73.791017,40.850407],[-73.789514,40.8513],[-73.790825,40.851289],[-73.789665,40.8515],[-73.790892,40.851546],[-73.790155,40.852251],[-73.792272,40.85161],[-73.790164,40.852271],[-73.79341,40.852109],[-73.790421,40.853022],[-73.792487,40.85277],[-73.790808,40.853198],[-73.791266,40.853706],[-73.792979,40.853302],[-73.79107,40.853944],[-73.792514,40.853896],[-73.791338,40.854438],[-73.792503,40.855788],[-73.792011,40.856224],[-73.793051,40.856725],[-73.791894,40.856568],[-73.792884,40.857479],[-73.79186,40.857003],[-73.792465,40.857715],[-73.791294,40.857263],[-73.791637,40.857882],[-73.789258,40.858765],[-73.789222,40.858742]]],[[[-73.767832,40.854442],[-73.769385,40.852535],[-73.768608,40.850788],[-73.769597,40.847594],[-73.768057,40.845598],[-73.769014,40.845097],[-73.771572,40.847499],[-73.770889,40.849751],[-73.772918,40.852174],[-73.771731,40.852476],[-73.772808,40.85385],[-73.77214,40.854412],[-73.772354,40.859672],[-73.770846,40.8601],[-73.769473,40.859329],[-73.765333,40.855043],[-73.767832,40.854442]]],[[[-73.784575,40.860531],[-73.784714,40.859135],[-73.787483,40.858827],[-73.787001,40.860224],[-73.784628,40.860529],[-73.784575,40.860531]]],[[[-73.773219,40.860794],[-73.773262,40.86063],[-73.773397,40.860739],[-73.773336,40.860853],[-73.773219,40.860794]]],[[[-73.775138,40.861184],[-73.775168,40.861176],[-73.775191,40.86118],[-73.775212,40.861185],[-73.775232,40.861192],[-73.775251,40.861202],[-73.775265,40.861212],[-73.77528,40.861221],[-73.775293,40.861231],[-73.775302,40.861244],[-73.775306,40.861259],[-73.775306,40.861274],[-73.775305,40.861294],[-73.775305,40.861308],[-73.775305,40.861327],[-73.775305,40.861343],[-73.775303,40.861355],[-73.775295,40.861368],[-73.775292,40.861383],[-73.775277,40.861409],[-73.775277,40.86143],[-73.775274,40.861446],[-73.775253,40.861453],[-73.775231,40.861466],[-73.775225,40.861477],[-73.775198,40.861491],[-73.775187,40.861512],[-73.775175,40.861532],[-73.775163,40.861549],[-73.775157,40.861559],[-73.775153,40.861575],[-73.775139,40.861594],[-73.774932,40.861552],[-73.774929,40.861525],[-73.774929,40.861505],[-73.77493,40.861484],[-73.774929,40.861467],[-73.774929,40.861457],[-73.774927,40.861449],[-73.774921,40.861445],[-73.774918,40.86144],[-73.774918,40.861428],[-73.774928,40.861421],[-73.774929,40.861409],[-73.774935,40.861401],[-73.774943,40.861391],[-73.77496,40.86138],[-73.774972,40.861368],[-73.774986,40.861366],[-73.775005,40.861353],[-73.775013,40.861351],[-73.775023,40.861345],[-73.77504,40.861341],[-73.775055,40.861332],[-73.775061,40.86133],[-73.775071,40.861311],[-73.775082,40.861298],[-73.7751,40.861283],[-73.775104,40.861258],[-73.775107,40.861239],[-73.775108,40.861221],[-73.775115,40.861202],[-73.775123,40.861187],[-73.775138,40.861184]]],[[[-73.774602,40.862068],[-73.774582,40.862049],[-73.774578,40.862033],[-73.77457,40.862012],[-73.774573,40.861995],[-73.774574,40.861978],[-73.774574,40.861957],[-73.774589,40.861932],[-73.774598,40.861914],[-73.77461,40.861888],[-73.774625,40.861859],[-73.774625,40.861835],[-73.774634,40.861816],[-73.774656,40.861804],[-73.77467,40.86181],[-73.77469,40.861791],[-73.774715,40.86179],[-73.77474,40.861786],[-73.774757,40.861784],[-73.774774,40.861783],[-73.774791,40.861784],[-73.774807,40.861788],[-73.774823,40.861793],[-73.774837,40.861801],[-73.774849,40.86181],[-73.774859,40.86182],[-73.774867,40.861832],[-73.774873,40.861844],[-73.774867,40.861864],[-73.774866,40.861881],[-73.774877,40.861896],[-73.774877,40.861913],[-73.774876,40.861923],[-73.774869,40.86195],[-73.774861,40.861965],[-73.774857,40.861983],[-73.774837,40.861997],[-73.774809,40.862012],[-73.774786,40.862026],[-73.774771,40.862041],[-73.774749,40.862052],[-73.774726,40.862056],[-73.774709,40.86206],[-73.77468,40.862064],[-73.774663,40.862064],[-73.774645,40.862062],[-73.774626,40.862062],[-73.774602,40.862068]]],[[[-73.783126,40.862856],[-73.783145,40.862068],[-73.783167,40.862861],[-73.783126,40.862856]]],[[[-73.784013,40.863131],[-73.783728,40.862685],[-73.784632,40.862534],[-73.784045,40.863139],[-73.784013,40.863131]]],[[[-73.769636,40.865542],[-73.769941,40.865523],[-73.769777,40.865686],[-73.769448,40.865761],[-73.769636,40.865542]]],[[[-73.766921,40.867049],[-73.767229,40.866928],[-73.767124,40.867238],[-73.766681,40.86732],[-73.766921,40.867049]]],[[[-73.771718,40.871621],[-73.772635,40.87188],[-73.770849,40.871627],[-73.771718,40.871621]]],[[[-73.774831,40.874028],[-73.774781,40.874767],[-73.774755,40.874157],[-73.774831,40.874028]]],[[[-73.781941,40.875215],[-73.782599,40.874687],[-73.781982,40.875227],[-73.781941,40.875215]]],[[[-73.781902,40.876419],[-73.781833,40.876408],[-73.781798,40.876428],[-73.78176,40.876403],[-73.781669,40.876423],[-73.78166,40.876382],[-73.781717,40.876222],[-73.78172,40.876188],[-73.781773,40.876217],[-73.781798,40.876237],[-73.781795,40.876282],[-73.781867,40.87629],[-73.781916,40.876282],[-73.781971,40.876244],[-73.782018,40.876234],[-73.782068,40.876237],[-73.782107,40.876282],[-73.782107,40.876314],[-73.782155,40.87635],[-73.782175,40.876401],[-73.782201,40.876434],[-73.782106,40.876523],[-73.781989,40.876469],[-73.781902,40.876419]]],[[[-73.781295,40.875944],[-73.781423,40.875766],[-73.781463,40.875858],[-73.781473,40.875967],[-73.781514,40.876045],[-73.781495,40.876099],[-73.7814,40.876152],[-73.781364,40.876195],[-73.78138,40.876263],[-73.781435,40.876403],[-73.781396,40.876538],[-73.781338,40.876578],[-73.781206,40.876589],[-73.781209,40.876435],[-73.781207,40.876277],[-73.781231,40.87622],[-73.78124,40.876123],[-73.781305,40.876024],[-73.781295,40.875944]]],[[[-73.783528,40.87724],[-73.783666,40.87663],[-73.783447,40.877412],[-73.783528,40.87724]]],[[[-73.785251,40.879908],[-73.78521,40.879896],[-73.785177,40.879928],[-73.785136,40.879913],[-73.785096,40.879867],[-73.78505,40.879858],[-73.78501,40.879833],[-73.785012,40.879787],[-73.785036,40.879763],[-73.785076,40.879744],[-73.785142,40.879739],[-73.785161,40.879759],[-73.785228,40.879789],[-73.785276,40.879771],[-73.78535,40.879785],[-73.785438,40.879783],[-73.785464,40.879759],[-73.785505,40.87979],[-73.785572,40.879791],[-73.785662,40.879823],[-73.785676,40.879851],[-73.785427,40.880041],[-73.785363,40.880022],[-73.785296,40.879944],[-73.785255,40.879929],[-73.785251,40.879908]]],[[[-73.784836,40.880558],[-73.783702,40.879931],[-73.785267,40.880388],[-73.784958,40.880745],[-73.784836,40.880558]]],[[[-73.872949,40.904441],[-73.859468,40.900517],[-73.858864,40.901711],[-73.859579,40.90244],[-73.85816,40.902305],[-73.857111,40.903649],[-73.857178,40.905286],[-73.85601,40.905306],[-73.856924,40.905974],[-73.853741,40.907787],[-73.854711,40.908006],[-73.854589,40.908939],[-73.852956,40.910353],[-73.852456,40.90986],[-73.851071,40.910371],[-73.853475,40.90753],[-73.850921,40.906616],[-73.849336,40.907125],[-73.844819,40.905529],[-73.844893,40.90419],[-73.841387,40.904172],[-73.840865,40.901862],[-73.839246,40.899501],[-73.839648,40.89733],[-73.838392,40.894067],[-73.822677,40.889619],[-73.822486,40.890098],[-73.823265,40.889986],[-73.822853,40.891206],[-73.793007,40.883358],[-73.794917,40.880543],[-73.795546,40.88069],[-73.795026,40.879747],[-73.797438,40.875135],[-73.799814,40.874159],[-73.802979,40.868743],[-73.805653,40.86894],[-73.806786,40.87041],[-73.809244,40.871224],[-73.807541,40.870377],[-73.808433,40.869275],[-73.80673,40.869529],[-73.806466,40.868611],[-73.805012,40.868251],[-73.804701,40.867033],[-73.802914,40.866978],[-73.802715,40.865659],[-73.801773,40.865876],[-73.797804,40.872256],[-73.794791,40.8732],[-73.793167,40.877055],[-73.794222,40.877382],[-73.793847,40.878594],[-73.792605,40.879657],[-73.789059,40.881214],[-73.78912,40.88008],[-73.790063,40.879594],[-73.789523,40.878998],[-73.78611,40.879057],[-73.784212,40.878281],[-73.784942,40.87593],[-73.78711,40.873181],[-73.786249,40.872382],[-73.785278,40.873555],[-73.785215,40.871634],[-73.78401,40.873767],[-73.783402,40.873717],[-73.783281,40.870698],[-73.785603,40.868341],[-73.786011,40.869318],[-73.788036,40.869215],[-73.789741,40.868818],[-73.79161,40.867277],[-73.792294,40.865158],[-73.791498,40.862345],[-73.79188,40.861255],[-73.794116,40.859696],[-73.794821,40.857893],[-73.794472,40.856468],[-73.796855,40.856264],[-73.798533,40.855005],[-73.799048,40.854051],[-73.797805,40.851949],[-73.800157,40.848231],[-73.801467,40.84877],[-73.804176,40.853339],[-73.804543,40.854739],[-73.803527,40.855603],[-73.804914,40.861643],[-73.806238,40.861484],[-73.80582,40.860034],[-73.808028,40.859593],[-73.813952,40.864064],[-73.816414,40.86118],[-73.813818,40.860548],[-73.812732,40.858877],[-73.812306,40.854161],[-73.816409,40.854082],[-73.81685,40.853284],[-73.817124,40.851416],[-73.81521,40.84923],[-73.81613,40.846527],[-73.813657,40.847205],[-73.814805,40.845777],[-73.813189,40.846229],[-73.813819,40.845802],[-73.81326,40.845233],[-73.81234,40.846544],[-73.812815,40.845249],[-73.812189,40.845951],[-73.812436,40.846737],[-73.811878,40.846616],[-73.812601,40.844381],[-73.812549,40.844952],[-73.814039,40.84491],[-73.813364,40.843843],[-73.813817,40.843625],[-73.817833,40.84437],[-73.815171,40.842577],[-73.815702,40.842519],[-73.815472,40.841585],[-73.814798,40.841384],[-73.815006,40.840293],[-73.814385,40.839634],[-73.816322,40.837894],[-73.81602,40.834086],[-73.813199,40.828928],[-73.812418,40.828268],[-73.809942,40.828218],[-73.81252,40.827842],[-73.813595,40.826908],[-73.812923,40.826376],[-73.814035,40.825926],[-73.813429,40.825934],[-73.813736,40.825264],[-73.812126,40.825569],[-73.814041,40.824423],[-73.813274,40.823966],[-73.812814,40.824734],[-73.811897,40.82434],[-73.809092,40.825873],[-73.807573,40.825797],[-73.806521,40.824214],[-73.805728,40.820177],[-73.804619,40.819026],[-73.800616,40.817963],[-73.797406,40.815851],[-73.800916,40.813761],[-73.801746,40.812864],[-73.801426,40.812424],[-73.803141,40.812457],[-73.804375,40.814242],[-73.803222,40.813373],[-73.803517,40.813951],[-73.806899,40.816483],[-73.805685,40.815033],[-73.804963,40.812163],[-73.804056,40.812071],[-73.8022,40.810019],[-73.801012,40.810713],[-73.801467,40.810141],[-73.798538,40.809586],[-73.792289,40.806848],[-73.790865,40.80734],[-73.790125,40.805771],[-73.790568,40.804557],[-73.793118,40.804198],[-73.801753,40.809041],[-73.80414,40.808823],[-73.80992,40.812928],[-73.814003,40.813551],[-73.81446,40.812962],[-73.814477,40.813518],[-73.816201,40.813847],[-73.819903,40.813137],[-73.821065,40.812203],[-73.820324,40.812439],[-73.82113,40.812449],[-73.820442,40.812657],[-73.820842,40.812997],[-73.824064,40.812169],[-73.825208,40.811223],[-73.825672,40.811584],[-73.8255,40.811027],[-73.825813,40.811533],[-73.830025,40.810925],[-73.832147,40.808265],[-73.831396,40.80517],[-73.831953,40.804942],[-73.837355,40.806149],[-73.840416,40.812479],[-73.839531,40.815183],[-73.840099,40.817672],[-73.838791,40.819528],[-73.839061,40.822401],[-73.842308,40.828799],[-73.841919,40.830629],[-73.838827,40.83381],[-73.83972,40.839565],[-73.840303,40.839524],[-73.839591,40.834041],[-73.842759,40.830818],[-73.843036,40.829306],[-73.83996,40.821999],[-73.840146,40.819819],[-73.841987,40.818774],[-73.845207,40.811886],[-73.846889,40.810521],[-73.848215,40.812462],[-73.850525,40.81383],[-73.852619,40.814521],[-73.853744,40.813645],[-73.855315,40.814412],[-73.853468,40.813477],[-73.850895,40.813433],[-73.849212,40.812384],[-73.8499,40.808409],[-73.84871,40.80824],[-73.849522,40.808055],[-73.847634,40.806008],[-73.847903,40.805002],[-73.855854,40.804514],[-73.856438,40.804745],[-73.855605,40.805062],[-73.85889,40.805889],[-73.858393,40.806408],[-73.859366,40.806801],[-73.85941,40.80732],[-73.858665,40.806832],[-73.858418,40.808111],[-73.858951,40.810271],[-73.859832,40.809733],[-73.859336,40.808471],[-73.860892,40.809688],[-73.867656,40.810583],[-73.870778,40.814486],[-73.87652,40.81613],[-73.876732,40.815386],[-73.872037,40.813685],[-73.868112,40.806751],[-73.872381,40.80129],[-73.872346,40.800181],[-73.875265,40.801398],[-73.878142,40.801319],[-73.878166,40.802551],[-73.878743,40.802738],[-73.885052,40.80213],[-73.887959,40.804997],[-73.889064,40.805021],[-73.889198,40.805806],[-73.889974,40.804912],[-73.889374,40.805925],[-73.892455,40.806369],[-73.891676,40.80515],[-73.892748,40.80634],[-73.89473,40.80574],[-73.895098,40.806863],[-73.895302,40.805901],[-73.895978,40.806517],[-73.895878,40.806056],[-73.897761,40.806189],[-73.897871,40.805534],[-73.898161,40.806137],[-73.898526,40.805434],[-73.902049,40.804784],[-73.903799,40.803722],[-73.909156,40.798309],[-73.911885,40.796633],[-73.913722,40.796789],[-73.920241,40.799613],[-73.922596,40.802188],[-73.927628,40.802695],[-73.927645,40.803988],[-73.928726,40.804103],[-73.932282,40.808363],[-73.932874,40.810413],[-73.932387,40.819424],[-73.933606,40.832789],[-73.932996,40.835678],[-73.928616,40.844676],[-73.922562,40.853188],[-73.913414,40.863367],[-73.912763,40.863029],[-73.912273,40.863632],[-73.912744,40.863892],[-73.909667,40.868417],[-73.908932,40.872157],[-73.907743,40.872845],[-73.906651,40.875752],[-73.907653,40.877428],[-73.910332,40.879038],[-73.911489,40.879018],[-73.91571,40.875795],[-73.917757,40.875663],[-73.919784,40.876421],[-73.922067,40.878572],[-73.92449,40.879047],[-73.920393,40.887648],[-73.912868,40.907535],[-73.911655,40.913417],[-73.910332,40.915532],[-73.87416,40.904781],[-73.872949,40.904441]]]]}},{"type":"Feature","properties":{"cityId":"nyc","name":"New York City","part":"Brooklyn"},"geometry":{"type":"MultiPolygon","coordinates":[[[[-73.867062,40.582087],[-73.868963,40.581693],[-73.870003,40.582636],[-73.871159,40.586873],[-73.869814,40.58946],[-73.866351,40.591892],[-73.863273,40.590908],[-73.861253,40.587988],[-73.86283,40.584415],[-73.866519,40.5823],[-73.867062,40.582087]]],[[[-73.869527,40.598713],[-73.869671,40.596688],[-73.870209,40.596954],[-73.869527,40.598713]]],[[[-73.919901,40.5996],[-73.916547,40.598252],[-73.914358,40.595932],[-73.913064,40.594072],[-73.913519,40.591854],[-73.915329,40.591678],[-73.918034,40.594814],[-73.92183,40.597351],[-73.922166,40.598617],[-73.919896,40.599606],[-73.919901,40.5996]]],[[[-73.870195,40.598996],[-73.871082,40.598901],[-73.870494,40.602604],[-73.870263,40.601681],[-73.870195,40.598996]]],[[[-73.852434,40.597333],[-73.856734,40.596075],[-73.860444,40.596471],[-73.86336,40.600322],[-73.861175,40.602486],[-73.854826,40.601867],[-73.852769,40.600948],[-73.850768,40.598839],[-73.852005,40.597748],[-73.852434,40.597333]]],[[[-73.867029,40.603743],[-73.868308,40.603139],[-73.867026,40.604171],[-73.867029,40.603743]]],[[[-73.846737,40.604852],[-73.844654,40.604817],[-73.844884,40.603969],[-73.845828,40.603772],[-73.847801,40.604647],[-73.846737,40.604867],[-73.846737,40.604852]]],[[[-73.84828,40.605433],[-73.847869,40.605243],[-73.84829,40.605434],[-73.84828,40.605433]]],[[[-73.848404,40.60592],[-73.848413,40.605919],[-73.848427,40.605913],[-73.848433,40.605901],[-73.848426,40.605895],[-73.848416,40.605898],[-73.848406,40.60589],[-73.848405,40.605883],[-73.848393,40.605883],[-73.848382,40.605886],[-73.848372,40.605892],[-73.84836,40.605898],[-73.848346,40.605897],[-73.84834,40.605891],[-73.848339,40.605883],[-73.848327,40.605876],[-73.848323,40.605868],[-73.848323,40.605863],[-73.848323,40.605855],[-73.848318,40.605853],[-73.848312,40.605857],[-73.848306,40.605857],[-73.8483,40.605851],[-73.848295,40.605845],[-73.84829,40.605843],[-73.848283,40.605844],[-73.848276,40.605839],[-73.848271,40.605834],[-73.848269,40.605827],[-73.848274,40.605822],[-73.848274,40.605816],[-73.848266,40.605807],[-73.848257,40.605804],[-73.848253,40.605795],[-73.848255,40.605788],[-73.848256,40.605784],[-73.848261,40.605779],[-73.848269,40.605775],[-73.848277,40.605774],[-73.848291,40.605774],[-73.848295,40.605782],[-73.848308,40.605786],[-73.848325,40.605786],[-73.848339,40.605787],[-73.848352,40.605791],[-73.848361,40.605796],[-73.848376,40.605788],[-73.848387,40.605787],[-73.848392,40.605798],[-73.848393,40.60581],[-73.848398,40.605823],[-73.848408,40.605827],[-73.84842,40.605834],[-73.848422,40.605841],[-73.84841,40.605841],[-73.8484,40.605843],[-73.848408,40.605854],[-73.848422,40.605856],[-73.848444,40.605857],[-73.848469,40.605866],[-73.848477,40.605866],[-73.848477,40.60586],[-73.848479,40.605852],[-73.848487,40.605847],[-73.848496,40.605844],[-73.848501,40.605837],[-73.848507,40.605825],[-73.84851,40.605817],[-73.84851,40.605804],[-73.848506,40.605799],[-73.848502,40.605791],[-73.848507,40.605788],[-73.848515,40.605791],[-73.848529,40.605792],[-73.848538,40.605788],[-73.848553,40.605785],[-73.848572,40.605779],[-73.848594,40.605782],[-73.848597,40.605798],[-73.848595,40.605812],[-73.848586,40.605826],[-73.848577,40.605837],[-73.848558,40.605843],[-73.848551,40.605852],[-73.848542,40.605859],[-73.848549,40.605869],[-73.848561,40.605872],[-73.84857,40.605869],[-73.848574,40.605864],[-73.848581,40.60587],[-73.84858,40.60588],[-73.84858,40.605891],[-73.848582,40.605899],[-73.848582,40.605912],[-73.848593,40.60592],[-73.848608,40.605917],[-73.848625,40.605908],[-73.848637,40.605904],[-73.848652,40.6059],[-73.848667,40.60589],[-73.848678,40.605879],[-73.848674,40.605874],[-73.848672,40.605868],[-73.84868,40.605867],[-73.848692,40.605867],[-73.848703,40.605872],[-73.848718,40.605881],[-73.84872,40.60589],[-73.848696,40.605904],[-73.84867,40.605922],[-73.848636,40.605939],[-73.848591,40.605952],[-73.848544,40.605963],[-73.84851,40.605963],[-73.848475,40.605962],[-73.848438,40.605955],[-73.848408,40.60594],[-73.848397,40.605931],[-73.848398,40.605925],[-73.848404,40.60592]]],[[[-73.834463,40.607192],[-73.835736,40.605793],[-73.834374,40.607851],[-73.834463,40.607192]]],[[[-73.867024,40.608068],[-73.868743,40.607035],[-73.868685,40.608241],[-73.867775,40.608539],[-73.867024,40.608068]]],[[[-73.869665,40.60654],[-73.871094,40.604694],[-73.871057,40.606285],[-73.872456,40.608185],[-73.873001,40.610555],[-73.871039,40.609723],[-73.87076,40.608705],[-73.869665,40.60654]]],[[[-73.850476,40.612342],[-73.849596,40.611392],[-73.849889,40.609556],[-73.85406,40.6078],[-73.854092,40.60719],[-73.854953,40.607459],[-73.854766,40.608403],[-73.856166,40.611031],[-73.855078,40.610142],[-73.851925,40.61034],[-73.852594,40.610955],[-73.850494,40.612336],[-73.850476,40.612342]]],[[[-73.844735,40.613969],[-73.840679,40.611548],[-73.83843,40.613016],[-73.836362,40.612417],[-73.83898,40.607864],[-73.840531,40.608379],[-73.839679,40.607833],[-73.841389,40.606688],[-73.84042,40.605823],[-73.841584,40.604477],[-73.844181,40.604126],[-73.842218,40.604939],[-73.843421,40.605015],[-73.843754,40.606262],[-73.843632,40.60465],[-73.844652,40.605375],[-73.844338,40.606298],[-73.84528,40.606302],[-73.844909,40.605167],[-73.847448,40.605076],[-73.846235,40.606226],[-73.846491,40.607191],[-73.846892,40.606082],[-73.849557,40.606052],[-73.846937,40.60784],[-73.845174,40.608177],[-73.845981,40.608323],[-73.84571,40.611208],[-73.845221,40.611187],[-73.845709,40.612876],[-73.84475,40.613972],[-73.844735,40.613969]]],[[[-73.833702,40.620978],[-73.834019,40.614381],[-73.837611,40.61549],[-73.834982,40.61774],[-73.835534,40.619937],[-73.834977,40.620384],[-73.834201,40.619821],[-73.833736,40.620898],[-73.833702,40.620978]]],[[[-73.834781,40.622625],[-73.833814,40.62257],[-73.834008,40.621034],[-73.834987,40.621011],[-73.834992,40.622693],[-73.834781,40.622625]]],[[[-73.850231,40.62332],[-73.848657,40.622429],[-73.850879,40.62031],[-73.856256,40.619714],[-73.85727,40.620366],[-73.855091,40.621957],[-73.854428,40.620769],[-73.852068,40.620553],[-73.851289,40.621693],[-73.852181,40.622749],[-73.850237,40.623367],[-73.850231,40.62332]]],[[[-73.833594,40.623594],[-73.833618,40.623594],[-73.83363,40.623611],[-73.833633,40.62363],[-73.833635,40.62364],[-73.833637,40.623651],[-73.833655,40.623665],[-73.83367,40.623666],[-73.833687,40.623667],[-73.833699,40.623677],[-73.833708,40.623693],[-73.833708,40.623712],[-73.833691,40.623721],[-73.833663,40.623729],[-73.833638,40.623743],[-73.833637,40.623772],[-73.833631,40.6238],[-73.833607,40.623812],[-73.833621,40.623835],[-73.83363,40.623864],[-73.833635,40.623883],[-73.833651,40.623911],[-73.833652,40.623936],[-73.833636,40.623955],[-73.833602,40.623952],[-73.833577,40.623941],[-73.833559,40.623935],[-73.833576,40.623597],[-73.833594,40.623594]]],[[[-73.862124,40.62399],[-73.862787,40.62339],[-73.863558,40.623772],[-73.862075,40.624025],[-73.862124,40.62399]]],[[[-73.845895,40.624971],[-73.843001,40.62346],[-73.84545,40.623137],[-73.845164,40.624201],[-73.845907,40.625024],[-73.845895,40.624971]]],[[[-73.857775,40.624823],[-73.857655,40.625309],[-73.857674,40.624845],[-73.857775,40.624823]]],[[[-73.840485,40.627495],[-73.839558,40.627376],[-73.841004,40.626132],[-73.84224,40.627357],[-73.840447,40.626586],[-73.840492,40.627504],[-73.840485,40.627495]]],[[[-73.868729,40.617356],[-73.873953,40.615839],[-73.877981,40.615798],[-73.879724,40.616959],[-73.879781,40.61863],[-73.877791,40.621652],[-73.866455,40.628255],[-73.865471,40.627935],[-73.864728,40.626525],[-73.866509,40.623753],[-73.864978,40.620796],[-73.865759,40.618501],[-73.868207,40.617412],[-73.868729,40.617356]]],[[[-73.84814,40.628542],[-73.848186,40.628518],[-73.848315,40.628541],[-73.848407,40.628568],[-73.848434,40.628598],[-73.848456,40.62863],[-73.848472,40.628664],[-73.848484,40.628699],[-73.848484,40.628731],[-73.848479,40.628762],[-73.848469,40.628793],[-73.84844,40.628822],[-73.848407,40.628848],[-73.848369,40.628871],[-73.848126,40.62884],[-73.848101,40.628796],[-73.848054,40.628673],[-73.84814,40.628542]]],[[[-73.84852,40.63056],[-73.848498,40.63056],[-73.848476,40.630565],[-73.848456,40.630566],[-73.84844,40.630563],[-73.848426,40.630554],[-73.848418,40.630544],[-73.848418,40.63053],[-73.848425,40.630517],[-73.848425,40.6305],[-73.84843,40.630481],[-73.848433,40.630459],[-73.848449,40.630448],[-73.848476,40.630443],[-73.8485,40.63044],[-73.848525,40.630452],[-73.848543,40.630473],[-73.848577,40.630482],[-73.848611,40.630482],[-73.848637,40.630475],[-73.848658,40.630459],[-73.848685,40.630458],[-73.848691,40.630476],[-73.84869,40.630499],[-73.848689,40.630518],[-73.848698,40.630533],[-73.848701,40.630546],[-73.848697,40.63056],[-73.848694,40.63058],[-73.848704,40.630605],[-73.848694,40.630612],[-73.848681,40.630609],[-73.848663,40.630607],[-73.848644,40.630602],[-73.848629,40.630596],[-73.848611,40.630595],[-73.848591,40.63059],[-73.848571,40.630581],[-73.848559,40.630572],[-73.84854,40.630564],[-73.84852,40.63056]]],[[[-73.853,40.632022],[-73.851763,40.630614],[-73.853663,40.630875],[-73.856797,40.629841],[-73.858535,40.630614],[-73.857483,40.632766],[-73.855565,40.632819],[-73.85449,40.633677],[-73.852316,40.63347],[-73.852886,40.632178],[-73.853,40.632022]]],[[[-73.846385,40.635285],[-73.84789,40.632727],[-73.849755,40.632064],[-73.849799,40.634297],[-73.84792,40.638028],[-73.846597,40.638726],[-73.84449,40.636876],[-73.844919,40.63575],[-73.846249,40.63529],[-73.846385,40.635285]]],[[[-73.954395,40.739114],[-73.946616,40.736924],[-73.947086,40.734545],[-73.946598,40.734442],[-73.946737,40.735294],[-73.94557,40.736612],[-73.945033,40.735428],[-73.944549,40.736224],[-73.942394,40.735425],[-73.939888,40.731295],[-73.938103,40.729728],[-73.928869,40.727002],[-73.925615,40.720061],[-73.924818,40.720264],[-73.92469,40.718722],[-73.929568,40.717221],[-73.929512,40.715696],[-73.931988,40.7151],[-73.931241,40.713724],[-73.932452,40.713121],[-73.932033,40.71159],[-73.933385,40.711233],[-73.931901,40.711338],[-73.930361,40.708717],[-73.931546,40.711855],[-73.930889,40.712055],[-73.93182,40.712478],[-73.930668,40.713021],[-73.930852,40.714902],[-73.928439,40.71553],[-73.928902,40.716572],[-73.928166,40.717123],[-73.924694,40.717947],[-73.923904,40.717495],[-73.92326,40.716249],[-73.924833,40.715282],[-73.922235,40.712855],[-73.92112,40.710735],[-73.921892,40.709395],[-73.911807,40.703434],[-73.912904,40.702361],[-73.910679,40.701045],[-73.911808,40.699937],[-73.90426,40.6957],[-73.905796,40.694127],[-73.901554,40.691679],[-73.901888,40.691077],[-73.900425,40.688183],[-73.901162,40.687877],[-73.896526,40.682403],[-73.894175,40.685283],[-73.892741,40.68367],[-73.890154,40.685003],[-73.889628,40.684236],[-73.884523,40.686684],[-73.879561,40.691104],[-73.874021,40.694191],[-73.868918,40.695146],[-73.868405,40.694731],[-73.86602,40.681919],[-73.864101,40.682372],[-73.86335,40.679351],[-73.862346,40.679164],[-73.860385,40.671251],[-73.857633,40.671656],[-73.855685,40.663867],[-73.85843,40.663453],[-73.857616,40.660118],[-73.863171,40.658276],[-73.862887,40.655902],[-73.860869,40.655077],[-73.857223,40.650278],[-73.858376,40.647274],[-73.85717,40.643678],[-73.862895,40.64255],[-73.866704,40.640021],[-73.866199,40.639536],[-73.867323,40.639871],[-73.868673,40.640925],[-73.870615,40.644856],[-73.872571,40.645575],[-73.879215,40.654589],[-73.87972,40.654375],[-73.873673,40.646067],[-73.873362,40.644116],[-73.87008,40.639211],[-73.868089,40.638185],[-73.872935,40.636364],[-73.874631,40.636749],[-73.878351,40.638871],[-73.880487,40.641007],[-73.880039,40.64194],[-73.881393,40.642347],[-73.882702,40.644045],[-73.885578,40.64404],[-73.887201,40.645602],[-73.887771,40.647891],[-73.890961,40.64937],[-73.888761,40.646069],[-73.889309,40.646745],[-73.888184,40.647034],[-73.888641,40.64691],[-73.887826,40.645128],[-73.883736,40.64245],[-73.87975,40.638422],[-73.878534,40.638166],[-73.877145,40.635976],[-73.878206,40.634572],[-73.883453,40.631155],[-73.884047,40.62956],[-73.882633,40.628274],[-73.883693,40.627559],[-73.88513,40.628827],[-73.887663,40.628269],[-73.890423,40.626278],[-73.892321,40.623744],[-73.895485,40.622485],[-73.915902,40.631949],[-73.917394,40.631613],[-73.91558,40.629995],[-73.902287,40.624409],[-73.902794,40.62356],[-73.900635,40.621772],[-73.896751,40.621514],[-73.895712,40.61956],[-73.896644,40.617347],[-73.895973,40.614729],[-73.891087,40.612956],[-73.891383,40.612147],[-73.89394,40.611181],[-73.890978,40.612239],[-73.889697,40.611512],[-73.892148,40.609215],[-73.893257,40.60681],[-73.898245,40.605379],[-73.900151,40.605615],[-73.900994,40.606797],[-73.90028,40.610074],[-73.908523,40.61732],[-73.909072,40.61716],[-73.908354,40.616531],[-73.909139,40.616531],[-73.908106,40.615669],[-73.909177,40.616522],[-73.908815,40.61689],[-73.90943,40.61667],[-73.90903,40.615796],[-73.902259,40.610422],[-73.901701,40.605872],[-73.905206,40.604908],[-73.905975,40.606384],[-73.908448,40.606616],[-73.908258,40.605366],[-73.908789,40.606317],[-73.909845,40.606168],[-73.90831,40.604129],[-73.910923,40.603505],[-73.913525,40.603929],[-73.916736,40.606814],[-73.916571,40.609423],[-73.91684,40.60876],[-73.916386,40.610088],[-73.91456,40.61157],[-73.914934,40.613958],[-73.914112,40.614901],[-73.916421,40.613569],[-73.915929,40.613859],[-73.915993,40.612882],[-73.916418,40.61345],[-73.915732,40.61183],[-73.918053,40.610275],[-73.917963,40.608786],[-73.91782,40.609304],[-73.918557,40.608498],[-73.918099,40.608093],[-73.919008,40.608267],[-73.918249,40.607588],[-73.919023,40.608256],[-73.918378,40.607174],[-73.919371,40.608032],[-73.919242,40.607385],[-73.914428,40.602864],[-73.910916,40.60205],[-73.90929,40.602578],[-73.91072,40.602107],[-73.908988,40.601631],[-73.899636,40.603501],[-73.891858,40.603423],[-73.887671,40.605292],[-73.883965,40.605549],[-73.882718,40.604178],[-73.883392,40.603016],[-73.879907,40.592048],[-73.879416,40.592132],[-73.879715,40.591398],[-73.878924,40.590712],[-73.878857,40.588231],[-73.876717,40.584914],[-73.879703,40.580135],[-73.88207,40.579074],[-73.895524,40.576769],[-73.897114,40.580121],[-73.896556,40.583005],[-73.897956,40.584948],[-73.898263,40.586785],[-73.89935,40.587299],[-73.898994,40.587628],[-73.901157,40.587495],[-73.900343,40.587834],[-73.900812,40.588069],[-73.904865,40.587074],[-73.906447,40.588031],[-73.906836,40.586993],[-73.911554,40.58612],[-73.912015,40.594212],[-73.9154,40.598965],[-73.921608,40.601847],[-73.924826,40.599811],[-73.929507,40.602709],[-73.92917,40.603895],[-73.930944,40.603911],[-73.932037,40.60295],[-73.9312,40.601835],[-73.927469,40.600087],[-73.921776,40.595031],[-73.918045,40.59297],[-73.914206,40.589224],[-73.919235,40.586009],[-73.924757,40.585632],[-73.927905,40.587976],[-73.924248,40.590941],[-73.929135,40.588879],[-73.928757,40.589153],[-73.930629,40.590253],[-73.929713,40.59312],[-73.930017,40.594094],[-73.93005,40.593602],[-73.930433,40.594402],[-73.932797,40.594842],[-73.93101,40.591931],[-73.931553,40.591199],[-73.931133,40.589546],[-73.929744,40.588641],[-73.930365,40.588442],[-73.929703,40.587607],[-73.931349,40.587328],[-73.931252,40.586849],[-73.928694,40.587082],[-73.928157,40.585864],[-73.924499,40.584659],[-73.920323,40.584663],[-73.915355,40.58625],[-73.9135,40.586095],[-73.912554,40.585526],[-73.912817,40.583093],[-73.917272,40.583249],[-73.915146,40.582364],[-73.911686,40.582843],[-73.911397,40.581992],[-73.915435,40.581603],[-73.924626,40.583554],[-73.931702,40.58281],[-73.946435,40.583563],[-73.953493,40.582988],[-73.953302,40.582002],[-73.949375,40.582257],[-73.943062,40.581056],[-73.93291,40.581145],[-73.931061,40.576266],[-73.933098,40.57559],[-73.944393,40.575789],[-73.944553,40.575293],[-73.952544,40.574224],[-73.958435,40.574089],[-73.958943,40.573467],[-73.960216,40.573911],[-73.967203,40.573326],[-73.969451,40.572857],[-73.969212,40.572335],[-73.972497,40.572576],[-73.973233,40.571906],[-73.976843,40.571948],[-73.978047,40.5712],[-73.978585,40.571895],[-73.979765,40.571586],[-73.979425,40.571285],[-73.983081,40.571508],[-73.983673,40.571407],[-73.98327,40.569542],[-73.983758,40.571396],[-73.99742,40.570141],[-74.000779,40.570491],[-74.001878,40.570247],[-74.001984,40.569596],[-74.002487,40.571738],[-74.011902,40.57479],[-74.012962,40.577992],[-74.012018,40.579612],[-74.00648,40.581928],[-73.998038,40.58156],[-73.99782,40.580892],[-73.988429,40.578816],[-73.986696,40.579815],[-73.986045,40.58172],[-73.987973,40.57966],[-73.991743,40.5812],[-73.990338,40.584218],[-73.995897,40.582157],[-74.000179,40.583074],[-74.000437,40.584049],[-73.998085,40.585365],[-73.9997,40.585754],[-73.999565,40.586244],[-73.994079,40.588693],[-73.997777,40.587353],[-73.994877,40.588772],[-73.995348,40.589331],[-74.000239,40.58647],[-74.00047,40.586943],[-73.997883,40.588343],[-73.998673,40.589195],[-73.999237,40.588935],[-73.998379,40.58977],[-73.99878,40.590232],[-73.997112,40.591278],[-74.000093,40.591241],[-73.998388,40.593531],[-74.001058,40.592537],[-74.003634,40.59608],[-74.010655,40.600597],[-74.020699,40.603482],[-74.030052,40.604759],[-74.036081,40.609347],[-74.040234,40.615028],[-74.041596,40.620464],[-74.041894,40.624318],[-74.041065,40.630192],[-74.036807,40.638984],[-74.038763,40.639588],[-74.036725,40.639141],[-74.035842,40.640486],[-74.03674,40.641476],[-74.034073,40.644314],[-74.032311,40.643574],[-74.030518,40.645274],[-74.028501,40.644177],[-74.027034,40.645198],[-74.026049,40.646261],[-74.02939,40.648804],[-74.025071,40.646725],[-74.024146,40.647615],[-74.025539,40.649782],[-74.024844,40.650599],[-74.026051,40.650994],[-74.024488,40.650918],[-74.025501,40.65184],[-74.02306,40.650974],[-74.025369,40.652721],[-74.021541,40.650671],[-74.021185,40.650977],[-74.022337,40.65191],[-74.021264,40.651325],[-74.023807,40.653044],[-74.021959,40.652222],[-74.021232,40.652697],[-74.023205,40.654096],[-74.021629,40.653645],[-74.021825,40.654656],[-74.018727,40.653474],[-74.018119,40.653885],[-74.020256,40.655118],[-74.017874,40.654061],[-74.017153,40.654775],[-74.019801,40.656487],[-74.017267,40.655194],[-74.016394,40.65562],[-74.019108,40.657369],[-74.018606,40.657846],[-74.015854,40.656213],[-74.015436,40.656632],[-74.017742,40.658099],[-74.015047,40.65695],[-74.014421,40.657608],[-74.017458,40.65945],[-74.015542,40.660758],[-74.011839,40.658912],[-74.011107,40.659706],[-74.014022,40.661529],[-74.012654,40.661981],[-74.0086,40.659521],[-74.007781,40.660265],[-74.010372,40.662399],[-74.009551,40.663267],[-74.004284,40.661445],[-74.006038,40.662679],[-74.003488,40.66224],[-74.00566,40.663055],[-74.007432,40.664542],[-74.007125,40.664915],[-74.003629,40.662734],[-74.005281,40.664657],[-74.004862,40.665064],[-74.001135,40.662901],[-74.00003,40.663821],[-73.99971,40.66423],[-74.002925,40.666462],[-73.999981,40.66745],[-73.999026,40.668443],[-73.998558,40.671335],[-74.000303,40.668717],[-74.002215,40.668578],[-74.002895,40.667348],[-74.005864,40.667993],[-74.006771,40.666188],[-74.004754,40.670721],[-74.005439,40.670921],[-74.007548,40.667051],[-74.007087,40.668591],[-74.009854,40.668523],[-74.01154,40.665086],[-74.015749,40.664568],[-74.017444,40.665268],[-74.019339,40.671625],[-74.01751,40.671034],[-74.016487,40.66493],[-74.01228,40.665732],[-74.010357,40.668642],[-74.011514,40.670407],[-74.014062,40.669705],[-74.011753,40.670657],[-74.014274,40.671379],[-74.01508,40.670685],[-74.013873,40.67188],[-74.015596,40.67097],[-74.012976,40.673328],[-74.015119,40.672157],[-74.016321,40.672908],[-74.014579,40.674414],[-74.014964,40.674677],[-74.018168,40.671939],[-74.018801,40.67225],[-74.017271,40.673608],[-74.01815,40.675468],[-74.018475,40.675153],[-74.017877,40.676365],[-74.019952,40.677103],[-74.01843,40.677908],[-74.018411,40.678407],[-74.019472,40.678358],[-74.018565,40.678439],[-74.018579,40.678983],[-74.019439,40.678933],[-74.019281,40.679648],[-74.01282,40.683622],[-74.012123,40.682962],[-74.014105,40.681712],[-74.013018,40.680412],[-74.009671,40.683268],[-74.010773,40.684358],[-74.011783,40.68376],[-74.010928,40.684491],[-74.008164,40.686174],[-74.005882,40.686195],[-74.002976,40.690426],[-74.000961,40.690128],[-74.001743,40.692406],[-73.99457,40.704376],[-73.992308,40.70469],[-73.990947,40.704032],[-73.990308,40.704839],[-73.980925,40.705369],[-73.980909,40.705907],[-73.978684,40.705454],[-73.978392,40.705988],[-73.978593,40.704978],[-73.977356,40.704178],[-73.977512,40.703196],[-73.976239,40.704775],[-73.976927,40.702797],[-73.976348,40.702299],[-73.975534,40.703042],[-73.975948,40.702011],[-73.97455,40.70159],[-73.975747,40.699595],[-73.974318,40.701194],[-73.972392,40.700166],[-73.97352,40.701225],[-73.973187,40.701669],[-73.971138,40.699917],[-73.973324,40.702412],[-73.972835,40.702728],[-73.969825,40.700245],[-73.972839,40.703346],[-73.969245,40.701364],[-73.968985,40.701747],[-73.974656,40.706074],[-73.973476,40.705686],[-73.972549,40.706204],[-73.97463,40.707681],[-73.974236,40.708024],[-73.971225,40.705789],[-73.971004,40.706828],[-73.972757,40.708831],[-73.97232,40.709082],[-73.970262,40.706887],[-73.970181,40.704929],[-73.967621,40.703348],[-73.967477,40.703949],[-73.969297,40.705088],[-73.969826,40.711203],[-73.969317,40.71109],[-73.968454,40.712924],[-73.968848,40.713227],[-73.966768,40.717705],[-73.965154,40.719269],[-73.965374,40.720093],[-73.964464,40.720064],[-73.962966,40.722034],[-73.96166,40.72486],[-73.962114,40.725147],[-73.958143,40.724404],[-73.957951,40.725036],[-73.961615,40.725865],[-73.961017,40.728704],[-73.962324,40.733907],[-73.958312,40.738136],[-73.954441,40.739117],[-73.954395,40.739114]]]]}},{"type":"Feature","properties":{"cityId":"nyc","name":"New York City","part":"Queens"},"geometry":{"type":"MultiPolygon","coordinates":[[[[-73.826447,40.590527],[-73.827633,40.590074],[-73.826909,40.59164],[-73.825484,40.591973],[-73.826465,40.590588],[-73.826447,40.590527]]],[[[-73.809971,40.600067],[-73.810587,40.598748],[-73.812058,40.598457],[-73.815015,40.602056],[-73.814841,40.603999],[-73.813397,40.604363],[-73.810036,40.602654],[-73.810015,40.600108],[-73.809971,40.600067]]],[[[-73.800318,40.607064],[-73.797952,40.606624],[-73.798349,40.605739],[-73.799717,40.605321],[-73.798804,40.605602],[-73.798038,40.604836],[-73.800331,40.604848],[-73.799965,40.604566],[-73.7981,40.604701],[-73.798188,40.605789],[-73.797436,40.606224],[-73.796544,40.605905],[-73.796326,40.604757],[-73.797505,40.604097],[-73.803591,40.604277],[-73.803881,40.60556],[-73.803235,40.606264],[-73.801065,40.606968],[-73.800638,40.606293],[-73.800413,40.607069],[-73.800318,40.607064]]],[[[-73.829531,40.60724],[-73.829578,40.607238],[-73.829609,40.607256],[-73.829596,40.607327],[-73.829572,40.607342],[-73.829524,40.607339],[-73.829518,40.60732],[-73.829519,40.607261],[-73.829531,40.60724]]],[[[-73.796657,40.60896],[-73.796302,40.607497],[-73.7956,40.607601],[-73.795727,40.60523],[-73.796004,40.606386],[-73.800845,40.607224],[-73.803883,40.606073],[-73.801315,40.608545],[-73.797079,40.609011],[-73.796657,40.60896]]],[[[-73.827302,40.609485],[-73.826001,40.609071],[-73.82578,40.60793],[-73.82668,40.607998],[-73.825811,40.607767],[-73.824548,40.604889],[-73.827661,40.60524],[-73.829183,40.606125],[-73.82904,40.607355],[-73.827472,40.608225],[-73.827345,40.609503],[-73.827302,40.609485]]],[[[-73.832129,40.609516],[-73.830055,40.607912],[-73.830013,40.606181],[-73.83161,40.605186],[-73.835591,40.605542],[-73.834049,40.608236],[-73.832133,40.609518],[-73.832129,40.609516]]],[[[-73.766692,40.614254],[-73.765021,40.613506],[-73.76509,40.612067],[-73.762305,40.611359],[-73.761724,40.611846],[-73.760237,40.61082],[-73.761783,40.609151],[-73.759985,40.610879],[-73.759736,40.610155],[-73.755649,40.610085],[-73.748216,40.61201],[-73.745762,40.611991],[-73.743147,40.607259],[-73.738404,40.60312],[-73.738357,40.5976],[-73.739988,40.597002],[-73.740309,40.596186],[-73.740764,40.596979],[-73.741659,40.59681],[-73.739928,40.596061],[-73.739518,40.597035],[-73.738384,40.597117],[-73.738052,40.594733],[-73.746843,40.594223],[-73.753604,40.59094],[-73.761571,40.591699],[-73.777354,40.590093],[-73.788575,40.587526],[-73.813988,40.58333],[-73.83387,40.577649],[-73.862553,40.56681],[-73.865538,40.566571],[-73.866301,40.565552],[-73.86703,40.566056],[-73.868232,40.565077],[-73.869052,40.56544],[-73.870488,40.564855],[-73.870253,40.564183],[-73.871,40.564736],[-73.872379,40.563575],[-73.873141,40.564078],[-73.894919,40.557078],[-73.902795,40.556733],[-73.906914,40.555603],[-73.940268,40.542889],[-73.940558,40.54186],[-73.940274,40.552408],[-73.939384,40.554797],[-73.936838,40.556781],[-73.93191,40.5578],[-73.926158,40.561552],[-73.917661,40.562826],[-73.911942,40.565479],[-73.911858,40.564995],[-73.909769,40.565275],[-73.909532,40.564123],[-73.908073,40.564085],[-73.906406,40.562724],[-73.902989,40.563444],[-73.901709,40.56274],[-73.896133,40.565358],[-73.895577,40.566815],[-73.892806,40.568515],[-73.889111,40.567916],[-73.88431,40.568696],[-73.884887,40.56847],[-73.884337,40.568488],[-73.88446,40.567892],[-73.883577,40.568209],[-73.883698,40.568836],[-73.88337,40.568331],[-73.877808,40.5688],[-73.850444,40.58213],[-73.839354,40.581857],[-73.838302,40.582763],[-73.828525,40.584854],[-73.828196,40.585885],[-73.823262,40.587468],[-73.82146,40.586769],[-73.813295,40.591009],[-73.813589,40.591697],[-73.813235,40.59107],[-73.811834,40.591523],[-73.811529,40.592492],[-73.810891,40.591956],[-73.811073,40.593022],[-73.810795,40.592093],[-73.81004,40.593077],[-73.809779,40.592398],[-73.809702,40.593533],[-73.805967,40.591951],[-73.805792,40.591007],[-73.805354,40.591711],[-73.804362,40.591313],[-73.804538,40.592015],[-73.807873,40.593427],[-73.807851,40.594341],[-73.805938,40.595507],[-73.804318,40.594526],[-73.803794,40.592887],[-73.802764,40.592615],[-73.802899,40.594229],[-73.802337,40.594404],[-73.803725,40.594816],[-73.8032,40.594872],[-73.805252,40.597032],[-73.804876,40.596748],[-73.802922,40.598872],[-73.79421,40.599484],[-73.791589,40.600347],[-73.788078,40.60296],[-73.786169,40.603074],[-73.790295,40.59927],[-73.791235,40.596803],[-73.790863,40.595012],[-73.79048,40.594752],[-73.79067,40.595735],[-73.79032,40.594861],[-73.790286,40.595801],[-73.789677,40.594825],[-73.789874,40.596204],[-73.789414,40.594946],[-73.788896,40.598161],[-73.783596,40.602453],[-73.783135,40.603814],[-73.78367,40.605308],[-73.778815,40.60955],[-73.77548,40.60974],[-73.774203,40.608858],[-73.774276,40.607494],[-73.775905,40.609196],[-73.774582,40.606931],[-73.774754,40.604409],[-73.778181,40.600385],[-73.780172,40.600697],[-73.781878,40.598403],[-73.779727,40.597294],[-73.777521,40.598724],[-73.77635,40.600984],[-73.775112,40.601718],[-73.773386,40.598066],[-73.768345,40.597876],[-73.767951,40.598099],[-73.770725,40.598812],[-73.771106,40.599607],[-73.770276,40.602488],[-73.770573,40.604798],[-73.769037,40.60947],[-73.772112,40.611438],[-73.773146,40.611273],[-73.772957,40.61033],[-73.773978,40.612507],[-73.773242,40.613682],[-73.766725,40.61426],[-73.766692,40.614254]]],[[[-73.784786,40.61798],[-73.783279,40.615701],[-73.781496,40.615046],[-73.780851,40.61395],[-73.783713,40.611873],[-73.784728,40.612017],[-73.788714,40.609992],[-73.791339,40.607737],[-73.791804,40.609647],[-73.789657,40.609939],[-73.790062,40.611757],[-73.789398,40.612693],[-73.785663,40.613986],[-73.784966,40.616045],[-73.786203,40.618758],[-73.785855,40.619773],[-73.78527,40.619918],[-73.784811,40.618014],[-73.784786,40.61798]]],[[[-73.812518,40.620199],[-73.812557,40.620164],[-73.812599,40.620228],[-73.812619,40.620247],[-73.812656,40.620344],[-73.812688,40.620463],[-73.812681,40.620571],[-73.812653,40.620632],[-73.81261,40.620647],[-73.812597,40.620638],[-73.812592,40.620616],[-73.812596,40.620565],[-73.812552,40.620517],[-73.81253,40.620477],[-73.812521,40.620448],[-73.812516,40.620421],[-73.812524,40.62039],[-73.812525,40.620361],[-73.812548,40.620291],[-73.812545,40.620265],[-73.812527,40.620248],[-73.812518,40.620223],[-73.812518,40.620199]]],[[[-73.766709,40.61491],[-73.773977,40.616003],[-73.768735,40.6209],[-73.76746,40.620511],[-73.76672,40.615003],[-73.766709,40.61491]]],[[[-73.83191,40.624175],[-73.833462,40.621487],[-73.833623,40.622602],[-73.832727,40.623992],[-73.833528,40.623578],[-73.833392,40.624032],[-73.832112,40.624697],[-73.831909,40.624243],[-73.83191,40.624175]]],[[[-73.812234,40.625299],[-73.81196,40.623471],[-73.812855,40.622543],[-73.814385,40.625645],[-73.812164,40.626272],[-73.81222,40.625426],[-73.812234,40.625299]]],[[[-73.79882,40.625327],[-73.79807,40.624765],[-73.798858,40.625032],[-73.800326,40.624147],[-73.799227,40.624193],[-73.798677,40.623434],[-73.800137,40.619649],[-73.801122,40.619698],[-73.802064,40.62079],[-73.801511,40.61773],[-73.803474,40.6144],[-73.80641,40.622339],[-73.805417,40.623791],[-73.801628,40.625595],[-73.799061,40.62658],[-73.797592,40.626101],[-73.798867,40.62533],[-73.79882,40.625327]]],[[[-73.814294,40.629142],[-73.814669,40.627502],[-73.816174,40.628901],[-73.81597,40.630378],[-73.814674,40.629985],[-73.814294,40.629142]]],[[[-73.835977,40.632216],[-73.835063,40.631844],[-73.835889,40.631326],[-73.835979,40.632228],[-73.835977,40.632216]]],[[[-73.823376,40.638987],[-73.820672,40.628914],[-73.816231,40.624689],[-73.816674,40.624011],[-73.817953,40.624093],[-73.818662,40.622882],[-73.816723,40.621568],[-73.816207,40.622087],[-73.815387,40.621497],[-73.815432,40.620116],[-73.817445,40.618911],[-73.817647,40.617611],[-73.816548,40.614469],[-73.81421,40.614703],[-73.814415,40.614101],[-73.815357,40.614173],[-73.814796,40.613193],[-73.815988,40.613012],[-73.815404,40.610384],[-73.814614,40.610933],[-73.815207,40.609816],[-73.814964,40.60764],[-73.816426,40.605223],[-73.817392,40.605157],[-73.818491,40.599389],[-73.821201,40.594712],[-73.825478,40.59508],[-73.831581,40.594312],[-73.828577,40.593759],[-73.829925,40.592258],[-73.829492,40.593148],[-73.829993,40.593256],[-73.833451,40.5892],[-73.83688,40.58952],[-73.838801,40.591197],[-73.839089,40.590705],[-73.842117,40.592217],[-73.843854,40.594014],[-73.844144,40.595328],[-73.8404,40.598094],[-73.837517,40.598104],[-73.837885,40.598498],[-73.835113,40.597486],[-73.834398,40.594529],[-73.835021,40.595895],[-73.833823,40.597176],[-73.829484,40.598133],[-73.828062,40.59768],[-73.826215,40.59934],[-73.824813,40.598139],[-73.823794,40.599851],[-73.821689,40.599953],[-73.824452,40.600796],[-73.822925,40.602797],[-73.822905,40.605851],[-73.820028,40.609025],[-73.819618,40.610478],[-73.82069,40.612258],[-73.821206,40.610895],[-73.820487,40.610224],[-73.821383,40.608545],[-73.825558,40.614131],[-73.827039,40.613394],[-73.827737,40.614234],[-73.830546,40.614932],[-73.834019,40.614381],[-73.833702,40.620978],[-73.831639,40.621987],[-73.832568,40.621901],[-73.832623,40.622627],[-73.830232,40.622571],[-73.829256,40.624103],[-73.830485,40.622952],[-73.830511,40.623853],[-73.83104,40.623048],[-73.83188,40.62319],[-73.830628,40.626177],[-73.832299,40.627447],[-73.831713,40.628827],[-73.833012,40.627919],[-73.831144,40.632654],[-73.833406,40.638501],[-73.832217,40.638928],[-73.828086,40.635879],[-73.82533,40.635824],[-73.824788,40.636011],[-73.824194,40.639953],[-73.823376,40.638987]]],[[[-73.857223,40.650278],[-73.860869,40.655077],[-73.859793,40.654476],[-73.85722,40.650279],[-73.857223,40.650278]]],[[[-73.830327,40.655132],[-73.830378,40.655128],[-73.830413,40.655157],[-73.830412,40.655215],[-73.8304,40.655256],[-73.830358,40.655321],[-73.830331,40.655369],[-73.830266,40.655428],[-73.83019,40.655478],[-73.830126,40.65551],[-73.830003,40.655551],[-73.829926,40.655542],[-73.829889,40.655522],[-73.829946,40.655424],[-73.830043,40.655349],[-73.830327,40.655132]]],[[[-73.872872,40.785974],[-73.872828,40.785954],[-73.872823,40.785963],[-73.872774,40.785941],[-73.872809,40.785902],[-73.872853,40.785925],[-73.87284,40.785942],[-73.872885,40.785962],[-73.872872,40.785974]]],[[[-73.820499,40.801011],[-73.815805,40.799035],[-73.816101,40.798594],[-73.813277,40.797105],[-73.81179,40.798026],[-73.811394,40.79733],[-73.808714,40.796796],[-73.804538,40.79615],[-73.803251,40.796901],[-73.794446,40.79483],[-73.794912,40.791717],[-73.793686,40.789049],[-73.793385,40.78948],[-73.79362,40.788996],[-73.792688,40.788777],[-73.790282,40.790316],[-73.785681,40.79034],[-73.782531,40.791276],[-73.784407,40.791675],[-73.781747,40.791133],[-73.780775,40.79299],[-73.781589,40.793463],[-73.780822,40.793319],[-73.780792,40.794035],[-73.783075,40.794916],[-73.77945,40.796576],[-73.776871,40.796444],[-73.774436,40.794563],[-73.770631,40.788462],[-73.774269,40.786756],[-73.77629,40.788513],[-73.768581,40.779876],[-73.767162,40.779782],[-73.768162,40.779396],[-73.765105,40.773798],[-73.758422,40.767198],[-73.754937,40.766092],[-73.752263,40.763893],[-73.750974,40.761685],[-73.748681,40.760964],[-73.746426,40.759223],[-73.746262,40.757774],[-73.744627,40.75655],[-73.748501,40.761326],[-73.751231,40.762522],[-73.755072,40.767532],[-73.754427,40.768699],[-73.755562,40.771448],[-73.75339,40.773056],[-73.755097,40.776377],[-73.754836,40.777466],[-73.755419,40.777635],[-73.754442,40.778124],[-73.752294,40.782084],[-73.750806,40.782893],[-73.702735,40.75325],[-73.701694,40.752536],[-73.701347,40.75078],[-73.700022,40.739403],[-73.707662,40.72783],[-73.7177,40.726203],[-73.730327,40.722156],[-73.7269,40.709996],[-73.72563,40.679587],[-73.727535,40.673929],[-73.728242,40.668023],[-73.727814,40.663223],[-73.728331,40.663043],[-73.725663,40.65699],[-73.7251,40.652345],[-73.730287,40.650368],[-73.735135,40.649731],[-73.741437,40.646888],[-73.742051,40.641473],[-73.741423,40.640503],[-73.742274,40.640123],[-73.739558,40.635862],[-73.73987,40.635247],[-73.742396,40.635069],[-73.741095,40.637646],[-73.743972,40.637879],[-73.743524,40.638886],[-73.744709,40.637228],[-73.746496,40.63651],[-73.745168,40.638042],[-73.746782,40.63705],[-73.74623,40.640271],[-73.747391,40.64329],[-73.748781,40.645118],[-73.754756,40.647811],[-73.748707,40.643343],[-73.747561,40.64169],[-73.748529,40.635456],[-73.766399,40.628349],[-73.768824,40.624128],[-73.76868,40.622698],[-73.770671,40.620066],[-73.771717,40.620961],[-73.770925,40.623366],[-73.771974,40.623271],[-73.775034,40.619342],[-73.771821,40.623496],[-73.776543,40.627651],[-73.779469,40.627315],[-73.784195,40.620892],[-73.785843,40.62046],[-73.786902,40.619271],[-73.785718,40.614731],[-73.790355,40.612789],[-73.790631,40.610298],[-73.792981,40.610171],[-73.792418,40.608702],[-73.795057,40.610488],[-73.799113,40.611945],[-73.800495,40.611642],[-73.799458,40.614645],[-73.797276,40.61666],[-73.794363,40.622641],[-73.790758,40.622328],[-73.7894,40.622874],[-73.783631,40.628142],[-73.78349,40.630164],[-73.784348,40.631373],[-73.789664,40.634089],[-73.798038,40.631196],[-73.791195,40.634148],[-73.791251,40.634688],[-73.792223,40.635889],[-73.812034,40.644303],[-73.818303,40.646267],[-73.821117,40.648861],[-73.823466,40.655312],[-73.822468,40.659159],[-73.818548,40.661094],[-73.812621,40.660156],[-73.811301,40.660627],[-73.818842,40.662011],[-73.82323,40.660274],[-73.82493,40.655441],[-73.822907,40.648093],[-73.826104,40.650018],[-73.826242,40.648646],[-73.828461,40.649118],[-73.830937,40.651625],[-73.831561,40.653603],[-73.829025,40.656049],[-73.830534,40.65542],[-73.831358,40.65418],[-73.832161,40.654509],[-73.831161,40.655919],[-73.829261,40.656725],[-73.829997,40.659453],[-73.829891,40.658136],[-73.829105,40.657544],[-73.831853,40.654884],[-73.832903,40.657483],[-73.832085,40.65613],[-73.832601,40.657826],[-73.831104,40.658231],[-73.833385,40.658051],[-73.830799,40.648976],[-73.831487,40.647887],[-73.834535,40.648024],[-73.835972,40.649348],[-73.838893,40.661403],[-73.838141,40.662069],[-73.839696,40.662238],[-73.835923,40.645499],[-73.849507,40.644133],[-73.852427,40.647044],[-73.851726,40.648912],[-73.849398,40.651434],[-73.852667,40.650575],[-73.856053,40.651398],[-73.856615,40.652683],[-73.858147,40.652918],[-73.861255,40.656363],[-73.860008,40.656969],[-73.859895,40.658588],[-73.861025,40.658913],[-73.86102,40.658092],[-73.860146,40.658319],[-73.86031,40.657417],[-73.861275,40.657],[-73.861669,40.657972],[-73.862698,40.657618],[-73.863171,40.658276],[-73.857616,40.660118],[-73.85843,40.663453],[-73.856117,40.663808],[-73.856118,40.665509],[-73.857633,40.671656],[-73.860385,40.671251],[-73.86226,40.678816],[-73.86335,40.679351],[-73.864101,40.682372],[-73.86602,40.681919],[-73.868405,40.694731],[-73.868918,40.695146],[-73.874021,40.694191],[-73.879393,40.691209],[-73.884523,40.686684],[-73.889628,40.684236],[-73.890154,40.685003],[-73.892583,40.683491],[-73.893986,40.68507],[-73.896466,40.682336],[-73.901162,40.687877],[-73.900425,40.688183],[-73.901888,40.691077],[-73.901398,40.691589],[-73.905796,40.694127],[-73.90426,40.6957],[-73.911808,40.699937],[-73.910679,40.701045],[-73.912904,40.702361],[-73.911807,40.703434],[-73.921892,40.709395],[-73.920748,40.710533],[-73.922235,40.712855],[-73.92404,40.714008],[-73.924052,40.71487],[-73.92233,40.716076],[-73.920643,40.715773],[-73.92217,40.716368],[-73.923426,40.718097],[-73.92507,40.722181],[-73.924138,40.723603],[-73.920559,40.723532],[-73.925065,40.724594],[-73.929392,40.728308],[-73.937779,40.7304],[-73.93911,40.731379],[-73.941622,40.735798],[-73.945891,40.737482],[-73.941462,40.739248],[-73.938588,40.74293],[-73.940148,40.742832],[-73.939653,40.74273],[-73.941188,40.74029],[-73.942791,40.739068],[-73.947151,40.737899],[-73.953859,40.739814],[-73.957283,40.73958],[-73.960726,40.73808],[-73.962475,40.738628],[-73.962431,40.739671],[-73.961431,40.740296],[-73.961804,40.741097],[-73.961073,40.741625],[-73.961552,40.741993],[-73.95972,40.743692],[-73.960568,40.744029],[-73.959632,40.743934],[-73.960155,40.744368],[-73.958758,40.744944],[-73.959649,40.745133],[-73.958622,40.745007],[-73.959144,40.746],[-73.957041,40.74892],[-73.953184,40.747734],[-73.956321,40.749081],[-73.955349,40.750013],[-73.955066,40.749632],[-73.943503,40.764498],[-73.939835,40.767987],[-73.934895,40.770041],[-73.934954,40.771372],[-73.93448,40.771322],[-73.937466,40.772531],[-73.937813,40.773562],[-73.937655,40.775085],[-73.93638,40.776921],[-73.933811,40.7781],[-73.931846,40.77788],[-73.92988,40.776221],[-73.924873,40.778625],[-73.91909,40.783367],[-73.917245,40.784141],[-73.9126,40.789376],[-73.909858,40.790945],[-73.900326,40.789007],[-73.896044,40.785799],[-73.895829,40.785221],[-73.898761,40.782748],[-73.901146,40.78271],[-73.902117,40.781847],[-73.902343,40.780187],[-73.901291,40.781858],[-73.898654,40.781995],[-73.894552,40.784077],[-73.895829,40.783287],[-73.894774,40.782253],[-73.895422,40.781717],[-73.892307,40.782465],[-73.892815,40.782913],[-73.891654,40.782194],[-73.89301,40.781797],[-73.891593,40.780667],[-73.892544,40.779575],[-73.891196,40.778563],[-73.892522,40.777404],[-73.891434,40.77638],[-73.891832,40.774879],[-73.891104,40.777022],[-73.890465,40.777703],[-73.890024,40.777246],[-73.889516,40.775936],[-73.890192,40.773646],[-73.884315,40.774184],[-73.884935,40.779936],[-73.878706,40.780585],[-73.878858,40.782397],[-73.879748,40.782836],[-73.878339,40.783025],[-73.875158,40.781509],[-73.871249,40.786038],[-73.869781,40.785337],[-73.868171,40.787256],[-73.869693,40.785296],[-73.869438,40.783638],[-73.868727,40.783731],[-73.872323,40.7811],[-73.870228,40.781267],[-73.872557,40.78082],[-73.855051,40.772195],[-73.856424,40.7703],[-73.858043,40.770215],[-73.856213,40.769195],[-73.858595,40.767484],[-73.862755,40.766764],[-73.858619,40.761935],[-73.857678,40.763027],[-73.858501,40.763376],[-73.857639,40.763099],[-73.856839,40.763999],[-73.857473,40.76322],[-73.856756,40.762667],[-73.857944,40.76267],[-73.856838,40.761757],[-73.858518,40.762014],[-73.85452,40.760159],[-73.850951,40.759419],[-73.849502,40.760006],[-73.849875,40.761103],[-73.851817,40.760353],[-73.849812,40.76127],[-73.848687,40.760138],[-73.843143,40.763547],[-73.842728,40.764628],[-73.839132,40.76599],[-73.839591,40.76711],[-73.840572,40.76627],[-73.844489,40.765459],[-73.847694,40.766705],[-73.848997,40.769148],[-73.848594,40.770623],[-73.849732,40.771729],[-73.851261,40.771872],[-73.849946,40.772057],[-73.848976,40.773561],[-73.848957,40.77789],[-73.849796,40.779075],[-73.851187,40.779014],[-73.850157,40.779432],[-73.852353,40.77948],[-73.849581,40.779867],[-73.851623,40.779939],[-73.849494,40.780065],[-73.849827,40.780926],[-73.85094,40.78108],[-73.849919,40.78112],[-73.849312,40.782076],[-73.855058,40.781946],[-73.855451,40.783142],[-73.856603,40.782892],[-73.858103,40.783752],[-73.858311,40.784959],[-73.859342,40.785484],[-73.859312,40.785032],[-73.858267,40.786916],[-73.856963,40.786661],[-73.85602,40.787577],[-73.853043,40.788021],[-73.854793,40.788699],[-73.854508,40.790143],[-73.852745,40.79101],[-73.853731,40.79264],[-73.853585,40.794107],[-73.852637,40.794542],[-73.84922,40.793366],[-73.84871,40.795416],[-73.846116,40.796095],[-73.843547,40.794913],[-73.842934,40.79519],[-73.843285,40.796174],[-73.84226,40.795584],[-73.842921,40.796903],[-73.841727,40.795422],[-73.840139,40.796879],[-73.84044,40.797637],[-73.8379,40.798508],[-73.840224,40.79761],[-73.839971,40.796905],[-73.838434,40.796786],[-73.837084,40.793903],[-73.83661,40.791883],[-73.837447,40.791183],[-73.837272,40.789063],[-73.835787,40.789574],[-73.832856,40.788552],[-73.831689,40.789251],[-73.832149,40.790033],[-73.831486,40.791242],[-73.829162,40.791873],[-73.828713,40.792202],[-73.829297,40.79293],[-73.82848,40.792597],[-73.827793,40.793295],[-73.828435,40.795637],[-73.829452,40.796658],[-73.830349,40.796313],[-73.82996,40.796709],[-73.827606,40.796706],[-73.826884,40.797759],[-73.82514,40.797341],[-73.823983,40.798101],[-73.824233,40.798695],[-73.823932,40.798232],[-73.823757,40.79888],[-73.822983,40.798648],[-73.820528,40.801005],[-73.820499,40.801011]]]]}},{"type":"Feature","properties":{"cityId":"nyc","name":"New York City","part":"Staten Island"},"geometry":{"type":"MultiPolygon","coordinates":[[[[-74.050508,40.566422],[-74.049237,40.565363],[-74.050026,40.565318],[-74.051056,40.566657],[-74.050539,40.566441],[-74.050508,40.566422]]],[[[-74.053141,40.577703],[-74.054061,40.577116],[-74.054898,40.577782],[-74.054693,40.579691],[-74.053687,40.580549],[-74.052932,40.579902],[-74.053141,40.577703]]],[[[-74.159456,40.641448],[-74.160945,40.641787],[-74.161438,40.643904],[-74.157627,40.643484],[-74.159319,40.641556],[-74.159456,40.641448]]],[[[-74.082213,40.64828],[-74.07981,40.648383],[-74.076507,40.646969],[-74.074453,40.645067],[-74.073499,40.645083],[-74.073338,40.645783],[-74.073239,40.644964],[-74.071707,40.645022],[-74.072309,40.644578],[-74.071478,40.642808],[-74.072184,40.642714],[-74.070374,40.642691],[-74.073238,40.642185],[-74.070247,40.642207],[-74.073087,40.641637],[-74.07289,40.640922],[-74.070019,40.641278],[-74.07285,40.640803],[-74.072573,40.637872],[-74.073484,40.637787],[-74.073373,40.636611],[-74.07251,40.636693],[-74.073223,40.636545],[-74.073058,40.63069],[-74.068022,40.628787],[-74.072912,40.629996],[-74.072295,40.627138],[-74.073421,40.626998],[-74.069784,40.621247],[-74.066692,40.619086],[-74.065961,40.619359],[-74.066378,40.618895],[-74.065573,40.619274],[-74.066682,40.618067],[-74.064357,40.618246],[-74.065099,40.617511],[-74.064012,40.617402],[-74.064328,40.616988],[-74.06144,40.614378],[-74.060504,40.6121],[-74.059992,40.612544],[-74.060272,40.611819],[-74.059114,40.611254],[-74.056496,40.607247],[-74.053811,40.605913],[-74.053047,40.601622],[-74.053437,40.600561],[-74.052403,40.599869],[-74.062153,40.592025],[-74.065034,40.588991],[-74.064542,40.588434],[-74.070212,40.583981],[-74.071449,40.582434],[-74.070596,40.58169],[-74.071467,40.582027],[-74.074893,40.579317],[-74.073312,40.57845],[-74.075384,40.578804],[-74.075798,40.578309],[-74.075235,40.577999],[-74.076016,40.578245],[-74.079263,40.575671],[-74.07868,40.575082],[-74.079337,40.575627],[-74.080179,40.57518],[-74.085953,40.570298],[-74.086913,40.568986],[-74.086193,40.568564],[-74.087251,40.569082],[-74.089203,40.567174],[-74.090999,40.566737],[-74.09405,40.562981],[-74.096119,40.562587],[-74.098198,40.559836],[-74.097833,40.55912],[-74.099718,40.559141],[-74.1008,40.558322],[-74.101847,40.556217],[-74.101375,40.555692],[-74.103099,40.555904],[-74.105089,40.553235],[-74.107687,40.553977],[-74.112789,40.547884],[-74.116764,40.547752],[-74.119865,40.545427],[-74.1225,40.544858],[-74.130712,40.534535],[-74.133565,40.531511],[-74.136909,40.529282],[-74.138884,40.529961],[-74.140482,40.535081],[-74.134101,40.535494],[-74.131196,40.537872],[-74.131734,40.538252],[-74.131999,40.537481],[-74.133075,40.537229],[-74.132647,40.536937],[-74.133682,40.536709],[-74.130082,40.539849],[-74.129765,40.539415],[-74.130228,40.539684],[-74.131154,40.538873],[-74.13072,40.538581],[-74.131794,40.538326],[-74.130867,40.538164],[-74.127988,40.540711],[-74.127602,40.543223],[-74.130727,40.546255],[-74.134179,40.546813],[-74.136412,40.546252],[-74.136502,40.545184],[-74.137171,40.545757],[-74.136845,40.544918],[-74.137885,40.545894],[-74.138411,40.545606],[-74.138651,40.544887],[-74.137625,40.544253],[-74.138485,40.54473],[-74.13902,40.544715],[-74.138163,40.54411],[-74.139034,40.544705],[-74.13954,40.544295],[-74.138207,40.543774],[-74.138523,40.543401],[-74.13957,40.544272],[-74.138947,40.543407],[-74.140311,40.54405],[-74.139242,40.543182],[-74.140227,40.543696],[-74.139693,40.542956],[-74.140628,40.543113],[-74.139756,40.542481],[-74.141106,40.543042],[-74.140413,40.54209],[-74.141798,40.5422],[-74.140895,40.541571],[-74.142256,40.542296],[-74.141867,40.539711],[-74.142339,40.538949],[-74.141766,40.538542],[-74.142266,40.53814],[-74.141868,40.538444],[-74.141219,40.537254],[-74.142176,40.537894],[-74.141583,40.537087],[-74.143834,40.537137],[-74.144741,40.535801],[-74.149218,40.534241],[-74.150466,40.532734],[-74.155864,40.529513],[-74.156135,40.528649],[-74.156672,40.528993],[-74.159702,40.527296],[-74.162441,40.527095],[-74.169833,40.523134],[-74.172697,40.522969],[-74.177621,40.51933],[-74.180892,40.520634],[-74.184832,40.519341],[-74.188657,40.516144],[-74.189269,40.515345],[-74.188847,40.515105],[-74.18941,40.515333],[-74.195214,40.509977],[-74.199673,40.511427],[-74.200025,40.512262],[-74.198926,40.512777],[-74.199362,40.51301],[-74.207569,40.511856],[-74.209352,40.511041],[-74.209278,40.510483],[-74.209714,40.510777],[-74.212815,40.50723],[-74.215246,40.505954],[-74.217688,40.503337],[-74.224872,40.501802],[-74.227157,40.502295],[-74.231146,40.501851],[-74.236789,40.500001],[-74.23982,40.497596],[-74.244329,40.497546],[-74.246762,40.496134],[-74.248879,40.496432],[-74.253084,40.500035],[-74.255235,40.503934],[-74.255453,40.508033],[-74.253734,40.509377],[-74.254569,40.50988],[-74.253317,40.509861],[-74.253434,40.511636],[-74.251793,40.514005],[-74.250112,40.515045],[-74.250477,40.516117],[-74.249357,40.515006],[-74.249942,40.516137],[-74.248648,40.516112],[-74.248285,40.516487],[-74.249379,40.516951],[-74.248515,40.517475],[-74.24892,40.517208],[-74.247519,40.515736],[-74.246441,40.515965],[-74.246996,40.517182],[-74.24648,40.516687],[-74.244409,40.518477],[-74.242326,40.518326],[-74.23985,40.520001],[-74.241174,40.52106],[-74.242933,40.521227],[-74.242803,40.52398],[-74.243966,40.524905],[-74.241508,40.531041],[-74.242019,40.53423],[-74.244027,40.536635],[-74.245299,40.536861],[-74.244428,40.537981],[-74.24552,40.540757],[-74.247678,40.543125],[-74.246138,40.545696],[-74.243639,40.547666],[-74.242318,40.546964],[-74.240459,40.547625],[-74.236546,40.550411],[-74.236512,40.552168],[-74.234899,40.553005],[-74.232991,40.552768],[-74.230756,40.555536],[-74.22932,40.555491],[-74.228725,40.556297],[-74.221347,40.555358],[-74.220622,40.555899],[-74.219921,40.554698],[-74.219321,40.555614],[-74.218914,40.554777],[-74.218798,40.555813],[-74.217413,40.555094],[-74.214741,40.556242],[-74.214584,40.556899],[-74.213334,40.556586],[-74.212023,40.558336],[-74.211218,40.560372],[-74.211309,40.56363],[-74.208005,40.570564],[-74.207074,40.576337],[-74.204399,40.583749],[-74.204409,40.589707],[-74.202154,40.5908],[-74.203053,40.59114],[-74.202455,40.590951],[-74.199741,40.593565],[-74.197384,40.597806],[-74.19876,40.601712],[-74.202219,40.60597],[-74.202817,40.608271],[-74.202444,40.613285],[-74.200642,40.616033],[-74.200439,40.618075],[-74.201613,40.623402],[-74.200792,40.63035],[-74.200404,40.631456],[-74.195362,40.635199],[-74.194623,40.637391],[-74.193722,40.637391],[-74.186525,40.643389],[-74.1847,40.643924],[-74.183728,40.642307],[-74.183418,40.644657],[-74.180041,40.644288],[-74.179965,40.645267],[-74.17973,40.644381],[-74.179303,40.645009],[-74.179081,40.644506],[-74.179556,40.642243],[-74.177269,40.643098],[-74.176726,40.642439],[-74.175042,40.645129],[-74.174111,40.645055],[-74.172688,40.64302],[-74.171348,40.642874],[-74.171507,40.641222],[-74.172752,40.640639],[-74.171456,40.641213],[-74.171154,40.642399],[-74.171193,40.64174],[-74.166774,40.641582],[-74.166216,40.642424],[-74.165801,40.641224],[-74.164941,40.642209],[-74.16519,40.640642],[-74.164734,40.640391],[-74.164571,40.641419],[-74.164169,40.639994],[-74.164002,40.641066],[-74.163554,40.639856],[-74.163246,40.640957],[-74.162069,40.640788],[-74.162285,40.638766],[-74.161449,40.639428],[-74.16166,40.638665],[-74.161158,40.638694],[-74.160905,40.639386],[-74.161064,40.638681],[-74.160422,40.638465],[-74.159949,40.63994],[-74.160207,40.638609],[-74.159577,40.637992],[-74.158989,40.638579],[-74.158153,40.63811],[-74.157841,40.638874],[-74.157774,40.637957],[-74.156115,40.637531],[-74.154829,40.637724],[-74.154759,40.639196],[-74.154549,40.637296],[-74.15303,40.637181],[-74.152298,40.638274],[-74.151196,40.637731],[-74.151395,40.639396],[-74.149509,40.637435],[-74.148882,40.638705],[-74.148558,40.637438],[-74.148778,40.638876],[-74.145193,40.639378],[-74.143815,40.638903],[-74.141556,40.640367],[-74.134353,40.641887],[-74.131256,40.641597],[-74.130325,40.640778],[-74.129678,40.641385],[-74.129977,40.64073],[-74.129307,40.640337],[-74.128995,40.641189],[-74.127148,40.639311],[-74.127054,40.640242],[-74.12607,40.640254],[-74.1262,40.641264],[-74.12564,40.641418],[-74.125995,40.640231],[-74.124384,40.640168],[-74.122827,40.641291],[-74.119607,40.64138],[-74.119957,40.642209],[-74.11953,40.64147],[-74.119481,40.642355],[-74.119004,40.641464],[-74.118875,40.642387],[-74.118421,40.641576],[-74.117498,40.641583],[-74.116884,40.642367],[-74.117225,40.643027],[-74.116666,40.642107],[-74.116753,40.643162],[-74.115719,40.642352],[-74.113797,40.643609],[-74.114041,40.644042],[-74.109739,40.645464],[-74.104124,40.64574],[-74.098801,40.645047],[-74.09304,40.645962],[-74.085708,40.64888],[-74.082566,40.648316],[-74.082213,40.64828]]]]}}]}
